{
"type": "FeatureCollection",
"name": "dept_survey_5km",
"crs": { "type": "name", "properties": { "name": "urn:ogc:def:crs:OGC:1.3:CRS84" } },
"features": [
{ "type": "Feature", "properties": { "Survey_Number": "S.No 200/1", "Area_Sqm": 6011.38, "Village": "Avinashi_Road_Zone" }, "geometry": { "type": "Polygon", "coordinates": [ [ [ 77.0360135, 11.0389437 ], [ 77.0361347, 11.0389478 ], [ 77.0361326, 11.0390071 ], [ 77.0361553, 11.0390079 ], [ 77.0361509, 11.0391324 ], [ 77.0359701, 11.0391261 ], [ 77.0359661, 11.0392387 ], [ 77.036718, 11.0392647 ], [ 77.0367039, 11.0396563 ], [ 77.0365382, 11.0396506 ], [ 77.0365308, 11.0398586 ], [ 77.0369761, 11.039874 ], [ 77.0370019, 11.0391518 ], [ 77.0368298, 11.0391458 ], [ 77.0368369, 11.0389488 ], [ 77.0370264, 11.0389553 ], [ 77.0370292, 11.0388778 ], [ 77.0360171, 11.0388429 ], [ 77.0360135, 11.0389437 ] ], [ [ 77.0363026, 11.0389622 ], [ 77.036705, 11.0389761 ], [ 77.036699, 11.0391452 ], [ 77.0362965, 11.0391313 ], [ 77.0363026, 11.0389622 ] ] ] } },
{ "type": "Feature", "properties": { "Survey_Number": "S.No 200/2", "Area_Sqm": 12125.23, "Village": "Avinashi_Road_Zone" }, "geometry": { "type": "Polygon", "coordinates": [ [ [ 77.0402418, 11.042464 ], [ 77.0402087, 11.0428665 ], [ 77.0405566, 11.0428941 ], [ 77.0405499, 11.0429756 ], [ 77.040607, 11.0429801 ], [ 77.0406055, 11.0429986 ], [ 77.0409145, 11.0430231 ], [ 77.0409559, 11.0425206 ], [ 77.0408367, 11.0425111 ], [ 77.0408476, 11.0423778 ], [ 77.0411073, 11.0423984 ], [ 77.0411547, 11.0418216 ], [ 77.0407368, 11.0417885 ], [ 77.0407135, 11.0420717 ], [ 77.0404286, 11.0420491 ], [ 77.0404307, 11.0420234 ], [ 77.0405345, 11.0420317 ], [ 77.0405407, 11.0419561 ], [ 77.0403704, 11.0419426 ], [ 77.0403641, 11.0420182 ], [ 77.0403909, 11.0420203 ], [ 77.0403888, 11.0420459 ], [ 77.0400747, 11.0420211 ], [ 77.0400767, 11.0419962 ], [ 77.0401586, 11.0420026 ], [ 77.0401849, 11.0416819 ], [ 77.0400216, 11.041669 ], [ 77.0399952, 11.0419897 ], [ 77.0400119, 11.041991 ], [ 77.0400099, 11.0420159 ], [ 77.0399516, 11.0420113 ], [ 77.0399636, 11.0418656 ], [ 77.0399056, 11.041861 ], [ 77.0399038, 11.0418821 ], [ 77.0397195, 11.0418675 ], [ 77.0397212, 11.0418463 ], [ 77.0396531, 11.041841 ], [ 77.0396184, 11.0422639 ], [ 77.0396864, 11.0422693 ], [ 77.0396898, 11.0422287 ], [ 77.0398749, 11.0422434 ], [ 77.0398716, 11.0422839 ], [ 77.0399288, 11.0422885 ], [ 77.0399407, 11.0421437 ], [ 77.0400056, 11.0421488 ], [ 77.0400007, 11.042209 ], [ 77.0399809, 11.0422074 ], [ 77.0399609, 11.0424501 ], [ 77.0400859, 11.04246 ], [ 77.0401059, 11.0422173 ], [ 77.0400835, 11.0422155 ], [ 77.0400884, 11.0421554 ], [ 77.0403764, 11.0421785 ], [ 77.0403738, 11.0422056 ], [ 77.0403712, 11.0422183 ], [ 77.0403503, 11.0424726 ], [ 77.0402418, 11.042464 ] ], [ [ 77.0404263, 11.0424688 ], [ 77.0404542, 11.0421747 ], [ 77.0406275, 11.0421882 ], [ 77.0406033, 11.0424828 ], [ 77.0404263, 11.0424688 ] ] ] } },
{ "type": "Feature", "properties": { "Survey_Number": "S.No 200/3", "Area_Sqm": 2015.81, "Village": "Avinashi_Road_Zone" }, "geometry": { "type": "Polygon", "coordinates": [ [ [ 77.0288556, 11.0257573 ], [ 77.0288756, 11.0257602 ], [ 77.0288615, 11.0258449 ], [ 77.0289704, 11.0258553 ], [ 77.0289841, 11.0257788 ], [ 77.0290121, 11.0257839 ], [ 77.0289972, 11.0258791 ], [ 77.0292114, 11.0259177 ], [ 77.0292352, 11.0258077 ], [ 77.0292084, 11.0257987 ], [ 77.0292143, 11.0257571 ], [ 77.0292233, 11.0256709 ], [ 77.0292084, 11.0256173 ], [ 77.0291668, 11.02554 ], [ 77.0290627, 11.0254002 ], [ 77.0290329, 11.0254329 ], [ 77.0290091, 11.025421 ], [ 77.029027, 11.0253764 ], [ 77.0287741, 11.0253318 ], [ 77.0286909, 11.0257839 ], [ 77.0288455, 11.0258121 ], [ 77.0288556, 11.0257573 ] ], [ [ 77.0290976, 11.0257252 ], [ 77.029037, 11.0257145 ], [ 77.0290505, 11.025626 ], [ 77.0288364, 11.0255832 ], [ 77.0288342, 11.0255575 ], [ 77.028815, 11.0255575 ], [ 77.0288042, 11.0256032 ], [ 77.02878, 11.0256003 ], [ 77.0287865, 11.0255539 ], [ 77.0287878, 11.0255539 ], [ 77.0288178, 11.0254047 ], [ 77.0289406, 11.0254261 ], [ 77.0289513, 11.0254404 ], [ 77.0290669, 11.0256067 ], [ 77.0290941, 11.025591 ], [ 77.0291212, 11.0256303 ], [ 77.029124, 11.0257002 ], [ 77.0290983, 11.0257031 ], [ 77.0290976, 11.0257252 ] ], [ [ 77.0290113, 11.0257538 ], [ 77.028775, 11.0257124 ], [ 77.0287828, 11.025644 ], [ 77.0287985, 11.0256467 ], [ 77.0287942, 11.0256881 ], [ 77.0290134, 11.0257316 ], [ 77.0290113, 11.0257538 ] ], [ [ 77.0290339, 11.0257809 ], [ 77.0291386, 11.0257964 ], [ 77.029135, 11.0258356 ], [ 77.0290318, 11.0258177 ], [ 77.0290339, 11.0257809 ] ], [ [ 77.0291885, 11.0258368 ], [ 77.0291597, 11.0258346 ], [ 77.0291659, 11.0258035 ], [ 77.0291957, 11.0258047 ], [ 77.0291885, 11.0258368 ] ] ] } },
{ "type": "Feature", "properties": { "Survey_Number": "S.No 200/4", "Area_Sqm": 844.56, "Village": "Avinashi_Road_Zone" }, "geometry": { "type": "Polygon", "coordinates": [ [ [ 77.0332763, 11.0589311 ], [ 77.0333326, 11.0589441 ], [ 77.0333272, 11.0589666 ], [ 77.0334749, 11.0590008 ], [ 77.0334803, 11.0589784 ], [ 77.0335271, 11.0589892 ], [ 77.0335954, 11.0587049 ], [ 77.033528, 11.0586893 ], [ 77.03354, 11.0586396 ], [ 77.0334956, 11.0586293 ], [ 77.0334913, 11.0586472 ], [ 77.0334668, 11.0586415 ], [ 77.0334711, 11.0586236 ], [ 77.0334291, 11.0586139 ], [ 77.0334172, 11.0586636 ], [ 77.0333447, 11.0586468 ], [ 77.0332763, 11.0589311 ] ], [ [ 77.0333752, 11.0588784 ], [ 77.0334157, 11.05871 ], [ 77.0335126, 11.0587324 ], [ 77.0334721, 11.0589008 ], [ 77.0333752, 11.0588784 ] ] ] } },
{ "type": "Feature", "properties": { "Survey_Number": "S.No 200/5", "Area_Sqm": 7328.63, "Village": "Avinashi_Road_Zone" }, "geometry": { "type": "Polygon", "coordinates": [ [ [ 77.0903269, 11.0593618 ], [ 77.090358, 11.0590788 ], [ 77.0899197, 11.0590532 ], [ 77.0899371, 11.0588458 ], [ 77.0889227, 11.0588185 ], [ 77.0889138, 11.0590228 ], [ 77.0889771, 11.0590254 ], [ 77.0889734, 11.05911 ], [ 77.0889167, 11.0591076 ], [ 77.0889082, 11.0593024 ], [ 77.0891696, 11.0593134 ], [ 77.0903269, 11.0593618 ] ], [ [ 77.0890834, 11.059128 ], [ 77.0890955, 11.0590144 ], [ 77.0892076, 11.0590258 ], [ 77.0891955, 11.0591394 ], [ 77.0890834, 11.059128 ] ], [ [ 77.089443, 11.0591486 ], [ 77.0894477, 11.0590546 ], [ 77.0896523, 11.0590644 ], [ 77.0896477, 11.0591584 ], [ 77.089443, 11.0591486 ] ] ] } },
{ "type": "Feature", "properties": { "Survey_Number": "S.No 201/1", "Area_Sqm": 4228.29, "Village": "Avinashi_Road_Zone" }, "geometry": { "type": "Polygon", "coordinates": [ [ [ 77.0326816, 11.035877 ], [ 77.0326447, 11.0361502 ], [ 77.0329898, 11.0361865 ], [ 77.0330182, 11.0359138 ], [ 77.0328747, 11.0358981 ], [ 77.0328814, 11.0358338 ], [ 77.0330209, 11.0358519 ], [ 77.0330418, 11.0356967 ], [ 77.0328994, 11.0356782 ], [ 77.0329062, 11.0356278 ], [ 77.0329305, 11.0356298 ], [ 77.033045, 11.0356413 ], [ 77.0330981, 11.0351311 ], [ 77.0330236, 11.0351236 ], [ 77.033025, 11.0350366 ], [ 77.032885, 11.0350172 ], [ 77.0328764, 11.0351051 ], [ 77.0327553, 11.0350924 ], [ 77.0327433, 11.0352024 ], [ 77.0327428, 11.0352023 ], [ 77.0327321, 11.0353057 ], [ 77.0326987, 11.0356121 ], [ 77.0326784, 11.0356095 ], [ 77.0326731, 11.0356488 ], [ 77.0326522, 11.0358041 ], [ 77.0328056, 11.035824 ], [ 77.0327987, 11.0358898 ], [ 77.0326816, 11.035877 ] ], [ [ 77.0329726, 11.0352253 ], [ 77.0328668, 11.0352147 ], [ 77.0328756, 11.0351343 ], [ 77.032981, 11.0351453 ], [ 77.0329726, 11.0352253 ] ], [ [ 77.0329569, 11.0353761 ], [ 77.0329433, 11.0355077 ], [ 77.0328358, 11.035499 ], [ 77.0328504, 11.0353654 ], [ 77.0329569, 11.0353761 ] ], [ [ 77.0327602, 11.0356201 ], [ 77.0327988, 11.0356242 ], [ 77.0327934, 11.0356644 ], [ 77.032755, 11.0356594 ], [ 77.0327602, 11.0356201 ] ] ] } },
{ "type": "Feature", "properties": { "Survey_Number": "S.No 201/2", "Area_Sqm": 3491.13, "Village": "Avinashi_Road_Zone" }, "geometry": { "type": "Polygon", "coordinates": [ [ [ 77.0345935, 11.0334591 ], [ 77.0345289, 11.0334615 ], [ 77.0345273, 11.0335244 ], [ 77.0343499, 11.0335201 ], [ 77.0343432, 11.0336462 ], [ 77.0350569, 11.0336641 ], [ 77.0350759, 11.0331645 ], [ 77.0345441, 11.0331526 ], [ 77.0345396, 11.0332627 ], [ 77.0346013, 11.0332627 ], [ 77.0345935, 11.0334591 ] ] ] } },
{ "type": "Feature", "properties": { "Survey_Number": "S.No 201/3", "Area_Sqm": 1380.71, "Village": "Avinashi_Road_Zone" }, "geometry": { "type": "Polygon", "coordinates": [ [ [ 77.0358646, 11.0328762 ], [ 77.0358645, 11.0328724 ], [ 77.0358706, 11.0328362 ], [ 77.0356714, 11.0328257 ], [ 77.0356697, 11.0328583 ], [ 77.0355829, 11.0328552 ], [ 77.0355722, 11.0331403 ], [ 77.035937, 11.0331534 ], [ 77.0359401, 11.0330692 ], [ 77.0359472, 11.0328792 ], [ 77.0358646, 11.0328762 ] ] ] } },
{ "type": "Feature", "properties": { "Survey_Number": "S.No 201/4", "Area_Sqm": 1755.07, "Village": "Avinashi_Road_Zone" }, "geometry": { "type": "Polygon", "coordinates": [ [ [ 77.0359866, 11.0315607 ], [ 77.0360228, 11.0315976 ], [ 77.0363277, 11.0316056 ], [ 77.0363314, 11.0316104 ], [ 77.0363374, 11.0316059 ], [ 77.0363612, 11.0316065 ], [ 77.0363618, 11.0315876 ], [ 77.0363822, 11.0315724 ], [ 77.0363735, 11.0315612 ], [ 77.03638, 11.0315554 ], [ 77.0363557, 11.0315293 ], [ 77.0363863, 11.0315304 ], [ 77.0364108, 11.0308944 ], [ 77.0363809, 11.0308683 ], [ 77.036361, 11.0308927 ], [ 77.0363602, 11.0308566 ], [ 77.036177, 11.0308607 ], [ 77.0361073, 11.0308593 ], [ 77.0361073, 11.0307959 ], [ 77.0360483, 11.0307959 ], [ 77.0360483, 11.030858 ], [ 77.0360416, 11.0308579 ], [ 77.0360416, 11.0308591 ], [ 77.0360052, 11.0308841 ], [ 77.0359936, 11.0315542 ], [ 77.0359866, 11.0315607 ] ], [ [ 77.0361073, 11.030916 ], [ 77.0361341, 11.0309165 ], [ 77.0361342, 11.0309184 ], [ 77.0361758, 11.0309174 ], [ 77.0363282, 11.0309139 ], [ 77.0362616, 11.0309736 ], [ 77.0362897, 11.0310039 ], [ 77.0363521, 11.030948 ], [ 77.0363642, 11.0309608 ], [ 77.0363495, 11.0312084 ], [ 77.0361233, 11.0312079 ], [ 77.0361489, 11.0311803 ], [ 77.036114, 11.0311513 ], [ 77.0360783, 11.0311928 ], [ 77.0360579, 11.0311916 ], [ 77.0360563, 11.0312183 ], [ 77.0360546, 11.0312203 ], [ 77.0360603, 11.03094 ], [ 77.0360864, 11.0309221 ], [ 77.0360838, 11.0309184 ], [ 77.0361073, 11.0309184 ], [ 77.0361073, 11.030916 ] ], [ [ 77.0360482, 11.0315319 ], [ 77.0360539, 11.0312554 ], [ 77.0360702, 11.0312609 ], [ 77.0360826, 11.0312572 ], [ 77.036106, 11.0313001 ], [ 77.0361435, 11.0312803 ], [ 77.0361218, 11.031251 ], [ 77.0363468, 11.0312534 ], [ 77.0363318, 11.0315036 ], [ 77.036287, 11.0314554 ], [ 77.0362414, 11.0314962 ], [ 77.0362893, 11.0315477 ], [ 77.0362845, 11.03155 ], [ 77.0360558, 11.031544 ], [ 77.0360482, 11.0315319 ] ] ] } },
{ "type": "Feature", "properties": { "Survey_Number": "S.No 201/5", "Area_Sqm": 1900.11, "Village": "Avinashi_Road_Zone" }, "geometry": { "type": "Polygon", "coordinates": [ [ [ 77.1013075, 11.020306 ], [ 77.1012975, 11.0206963 ], [ 77.1018894, 11.0207109 ], [ 77.1018933, 11.0205586 ], [ 77.1017362, 11.0205547 ], [ 77.1017347, 11.0206156 ], [ 77.101709, 11.0206149 ], [ 77.1017143, 11.0204083 ], [ 77.1017408, 11.020409 ], [ 77.1017397, 11.0204535 ], [ 77.1018887, 11.0204572 ], [ 77.1018923, 11.0203205 ], [ 77.1013075, 11.020306 ] ], [ [ 77.1013897, 11.020394 ], [ 77.1016632, 11.0204007 ], [ 77.1016577, 11.0206142 ], [ 77.1013843, 11.0206074 ], [ 77.1013897, 11.020394 ] ] ] } },
{ "type": "Feature", "properties": { "Survey_Number": "S.No 202/1", "Area_Sqm": 1422.03, "Village": "Avinashi_Road_Zone" }, "geometry": { "type": "Polygon", "coordinates": [ [ [ 77.1009324, 11.0174655 ], [ 77.1012873, 11.0174735 ], [ 77.1012902, 11.0173481 ], [ 77.1013352, 11.0173491 ], [ 77.1013367, 11.0172873 ], [ 77.1012932, 11.0172863 ], [ 77.1012965, 11.0171458 ], [ 77.1009401, 11.0171377 ], [ 77.1009324, 11.0174655 ] ], [ [ 77.1010937, 11.0172713 ], [ 77.1011728, 11.0172729 ], [ 77.1011711, 11.017358 ], [ 77.101092, 11.0173565 ], [ 77.1010937, 11.0172713 ] ] ] } },
{ "type": "Feature", "properties": { "Survey_Number": "S.No 202/2", "Area_Sqm": 1405.18, "Village": "Avinashi_Road_Zone" }, "geometry": { "type": "Polygon", "coordinates": [ [ [ 77.1009126, 11.0178513 ], [ 77.1012314, 11.0178575 ], [ 77.101239, 11.0174793 ], [ 77.1009202, 11.0174731 ], [ 77.1009126, 11.0178513 ] ], [ [ 77.1010383, 11.0177103 ], [ 77.1010388, 11.0176119 ], [ 77.1011334, 11.0176123 ], [ 77.1011329, 11.0177108 ], [ 77.1010383, 11.0177103 ] ] ] } },
{ "type": "Feature", "properties": { "Survey_Number": "S.No 202/3", "Area_Sqm": 3997.99, "Village": "Avinashi_Road_Zone" }, "geometry": { "type": "Polygon", "coordinates": [ [ [ 77.1026054, 11.0166438 ], [ 77.1026972, 11.0158797 ], [ 77.102156, 11.0158171 ], [ 77.1020642, 11.0165811 ], [ 77.1026054, 11.0166438 ] ], [ [ 77.102255, 11.0164743 ], [ 77.1023144, 11.0159562 ], [ 77.1023673, 11.0159621 ], [ 77.1023544, 11.0160754 ], [ 77.1024666, 11.0160878 ], [ 77.1024788, 11.015982 ], [ 77.1025344, 11.0159882 ], [ 77.1024759, 11.0164987 ], [ 77.102255, 11.0164743 ] ] ] } },
{ "type": "Feature", "properties": { "Survey_Number": "S.No 202/4", "Area_Sqm": 2013.63, "Village": "Avinashi_Road_Zone" }, "geometry": { "type": "Polygon", "coordinates": [ [ [ 77.1026423, 11.015385 ], [ 77.1027535, 11.0147666 ], [ 77.1024664, 11.0147169 ], [ 77.1023552, 11.0153353 ], [ 77.1026423, 11.015385 ] ], [ [ 77.1026328, 11.014837 ], [ 77.1025981, 11.0150302 ], [ 77.1025389, 11.01502 ], [ 77.1025737, 11.0148268 ], [ 77.1026328, 11.014837 ] ], [ [ 77.1025819, 11.0150838 ], [ 77.1025471, 11.0152771 ], [ 77.102488, 11.0152668 ], [ 77.1025227, 11.0150736 ], [ 77.1025819, 11.0150838 ] ] ] } },
{ "type": "Feature", "properties": { "Survey_Number": "S.No 202/5", "Area_Sqm": 3754.15, "Village": "Avinashi_Road_Zone" }, "geometry": { "type": "Polygon", "coordinates": [ [ [ 77.1038103, 11.0134002 ], [ 77.1039149, 11.0131645 ], [ 77.103695, 11.0130605 ], [ 77.1036051, 11.0132527 ], [ 77.1035622, 11.0132672 ], [ 77.1036534, 11.0130816 ], [ 77.103585, 11.01305 ], [ 77.1035783, 11.0130724 ], [ 77.1032497, 11.0129434 ], [ 77.1031196, 11.0132422 ], [ 77.1032457, 11.0132975 ], [ 77.1032853, 11.0132047 ], [ 77.1033262, 11.0132211 ], [ 77.1033092, 11.0132552 ], [ 77.1032948, 11.0132811 ], [ 77.1032839, 11.013317 ], [ 77.1032814, 11.0133503 ], [ 77.1032889, 11.0133938 ], [ 77.1033013, 11.0134224 ], [ 77.103317, 11.0134458 ], [ 77.1033325, 11.0134624 ], [ 77.1033538, 11.0134793 ], [ 77.1033827, 11.0134945 ], [ 77.1034018, 11.013501 ], [ 77.1034422, 11.0135048 ], [ 77.1034154, 11.0135627 ], [ 77.1033268, 11.0135292 ], [ 77.1032833, 11.0136147 ], [ 77.1036158, 11.0137503 ], [ 77.1037459, 11.0134713 ], [ 77.1037607, 11.0134778 ], [ 77.1037889, 11.013416 ], [ 77.1035756, 11.0133225 ], [ 77.1036226, 11.0133159 ], [ 77.1038103, 11.0134002 ] ], [ [ 77.1035084, 11.0131069 ], [ 77.1034684, 11.0131976 ], [ 77.1032919, 11.0131227 ], [ 77.1033319, 11.013032 ], [ 77.1035084, 11.0131069 ] ], [ [ 77.1035622, 11.0136213 ], [ 77.1034824, 11.0135874 ], [ 77.1035649, 11.0134002 ], [ 77.1036447, 11.0134341 ], [ 77.1035622, 11.0136213 ] ] ] } },
{ "type": "Feature", "properties": { "Survey_Number": "S.No 203/1", "Area_Sqm": 682.07, "Village": "Avinashi_Road_Zone" }, "geometry": { "type": "Polygon", "coordinates": [ [ [ 77.0828741, 11.0250959 ], [ 77.0828629, 11.0250888 ], [ 77.0827705, 11.0252281 ], [ 77.082837, 11.0252706 ], [ 77.082828, 11.0252842 ], [ 77.0828736, 11.0253133 ], [ 77.0828837, 11.025298 ], [ 77.0829594, 11.0253463 ], [ 77.0829488, 11.0253624 ], [ 77.0829962, 11.0253926 ], [ 77.0830078, 11.0253752 ], [ 77.0830784, 11.0254203 ], [ 77.0831435, 11.0253247 ], [ 77.0831303, 11.0253156 ], [ 77.0831527, 11.0252818 ], [ 77.0831017, 11.0252492 ], [ 77.0830872, 11.0252711 ], [ 77.0829088, 11.0251571 ], [ 77.0829269, 11.0251297 ], [ 77.0828741, 11.0250959 ] ] ] } },
{ "type": "Feature", "properties": { "Survey_Number": "S.No 203/2", "Area_Sqm": 1759.28, "Village": "Avinashi_Road_Zone" }, "geometry": { "type": "Polygon", "coordinates": [ [ [ 77.0816326, 11.0686323 ], [ 77.0816857, 11.0682653 ], [ 77.0813742, 11.0682219 ], [ 77.0813756, 11.0682125 ], [ 77.0812551, 11.0681957 ], [ 77.0812006, 11.0685721 ], [ 77.0816326, 11.0686323 ] ], [ [ 77.0815445, 11.0683612 ], [ 77.0815266, 11.0684849 ], [ 77.0813399, 11.0684589 ], [ 77.0813578, 11.0683352 ], [ 77.0815445, 11.0683612 ] ] ] } },
{ "type": "Feature", "properties": { "Survey_Number": "S.No 203/3", "Area_Sqm": 1401.07, "Village": "Avinashi_Road_Zone" }, "geometry": { "type": "Polygon", "coordinates": [ [ [ 77.0821137, 11.0686922 ], [ 77.0821639, 11.0683393 ], [ 77.0821546, 11.068338 ], [ 77.0821547, 11.0683375 ], [ 77.0817874, 11.0682871 ], [ 77.0817371, 11.0686405 ], [ 77.0821137, 11.0686922 ] ], [ [ 77.0819976, 11.0684478 ], [ 77.0820432, 11.0684541 ], [ 77.0820267, 11.0685701 ], [ 77.081865, 11.0685479 ], [ 77.0818882, 11.0683846 ], [ 77.0820043, 11.0684005 ], [ 77.0819976, 11.0684478 ] ] ] } },
{ "type": "Feature", "properties": { "Survey_Number": "S.No 203/4", "Area_Sqm": 204.11, "Village": "Avinashi_Road_Zone" }, "geometry": { "type": "Polygon", "coordinates": [ [ [ 77.0669041, 11.0677344 ], [ 77.067039, 11.0677278 ], [ 77.0670325, 11.0676195 ], [ 77.0669255, 11.0676149 ], [ 77.0668857, 11.0676132 ], [ 77.0669041, 11.0677344 ] ] ] } },
{ "type": "Feature", "properties": { "Survey_Number": "S.No 203/5", "Area_Sqm": 237.1, "Village": "Avinashi_Road_Zone" }, "geometry": { "type": "Polygon", "coordinates": [ [ [ 77.0669031, 11.0674454 ], [ 77.0669255, 11.0676149 ], [ 77.0670325, 11.0676195 ], [ 77.0670075, 11.067435 ], [ 77.0669031, 11.0674454 ] ] ] } },
{ "type": "Feature", "properties": { "Survey_Number": "S.No 204/1", "Area_Sqm": 4536.88, "Village": "Avinashi_Road_Zone" }, "geometry": { "type": "Polygon", "coordinates": [ [ [ 77.0327987, 11.0358898 ], [ 77.0326816, 11.035877 ], [ 77.0326447, 11.0361502 ], [ 77.0329898, 11.0361865 ], [ 77.0330182, 11.0359138 ], [ 77.0328747, 11.0358981 ], [ 77.0328814, 11.0358338 ], [ 77.0330209, 11.0358519 ], [ 77.0330418, 11.0356967 ], [ 77.0328994, 11.0356782 ], [ 77.0329062, 11.0356278 ], [ 77.0329305, 11.0356298 ], [ 77.033045, 11.0356413 ], [ 77.0330981, 11.0351311 ], [ 77.0330236, 11.0351236 ], [ 77.033025, 11.0350366 ], [ 77.032885, 11.0350172 ], [ 77.0328764, 11.0351051 ], [ 77.0327553, 11.0350924 ], [ 77.0327433, 11.0352024 ], [ 77.0327428, 11.0352023 ], [ 77.0327321, 11.0353057 ], [ 77.0326987, 11.0356121 ], [ 77.0326784, 11.0356095 ], [ 77.0326731, 11.0356488 ], [ 77.0326522, 11.0358041 ], [ 77.0328056, 11.035824 ], [ 77.0327987, 11.0358898 ] ] ] } },
{ "type": "Feature", "properties": { "Survey_Number": "S.No 204/2", "Area_Sqm": 14240.0, "Village": "Avinashi_Road_Zone" }, "geometry": { "type": "Polygon", "coordinates": [ [ [ 77.0397143, 11.0311611 ], [ 77.0396718, 11.031127 ], [ 77.0395027, 11.0312747 ], [ 77.0383709, 11.0301897 ], [ 77.0388792, 11.0296794 ], [ 77.0389462, 11.0297442 ], [ 77.0392283, 11.030017 ], [ 77.0396361, 11.0304031 ], [ 77.0399278, 11.0306768 ], [ 77.0399467, 11.030693 ], [ 77.0398862, 11.0307615 ], [ 77.0399387, 11.0308189 ], [ 77.0397314, 11.0310419 ], [ 77.0397768, 11.0310917 ], [ 77.0397143, 11.0311611 ] ] ] } },
{ "type": "Feature", "properties": { "Survey_Number": "S.No 204/3", "Area_Sqm": 1260.19, "Village": "Avinashi_Road_Zone" }, "geometry": { "type": "Polygon", "coordinates": [ [ [ 77.0747658, 11.0400594 ], [ 77.0747754, 11.0399131 ], [ 77.0747846, 11.0397988 ], [ 77.0748852, 11.0398008 ], [ 77.0748912, 11.0396853 ], [ 77.0749848, 11.0396918 ], [ 77.0749772, 11.0398108 ], [ 77.0750801, 11.0398158 ], [ 77.0750635, 11.0400779 ], [ 77.0749562, 11.0400752 ], [ 77.0749509, 11.0401937 ], [ 77.0748624, 11.0401858 ], [ 77.0748704, 11.0400621 ], [ 77.0747658, 11.0400594 ] ] ] } },
{ "type": "Feature", "properties": { "Survey_Number": "S.No 204/4", "Area_Sqm": 1046.88, "Village": "Avinashi_Road_Zone" }, "geometry": { "type": "Polygon", "coordinates": [ [ [ 77.0734621, 11.0412897 ], [ 77.0735012, 11.0406598 ], [ 77.0736324, 11.0406676 ], [ 77.0736135, 11.0409729 ], [ 77.073593, 11.0412975 ], [ 77.0734621, 11.0412897 ] ] ] } },
{ "type": "Feature", "properties": { "Survey_Number": "S.No 204/5", "Area_Sqm": 9177.55, "Village": "Avinashi_Road_Zone" }, "geometry": { "type": "Polygon", "coordinates": [ [ [ 77.0490774, 11.0018006 ], [ 77.0483824, 11.0018053 ], [ 77.0483668, 11.0012979 ], [ 77.0481154, 11.001297 ], [ 77.0481112, 11.0008786 ], [ 77.0483491, 11.0008908 ], [ 77.0485374, 11.0009233 ], [ 77.0486926, 11.0009517 ], [ 77.0488788, 11.0009923 ], [ 77.0490464, 11.0010248 ], [ 77.0491912, 11.0010329 ], [ 77.0491291, 11.0011345 ], [ 77.0491084, 11.0012929 ], [ 77.0491022, 11.0014472 ], [ 77.0491084, 11.0016463 ], [ 77.0490774, 11.0018006 ] ] ] } },
{ "type": "Feature", "properties": { "Survey_Number": "S.No 205/1", "Area_Sqm": 34.55, "Village": "Avinashi_Road_Zone" }, "geometry": { "type": "Polygon", "coordinates": [ [ [ 77.0436108, 11.0351841 ], [ 77.0436605, 11.0351856 ], [ 77.0436623, 11.0351306 ], [ 77.0436126, 11.0351291 ], [ 77.0436108, 11.0351841 ] ] ] } },
{ "type": "Feature", "properties": { "Survey_Number": "S.No 205/2", "Area_Sqm": 213.45, "Village": "Avinashi_Road_Zone" }, "geometry": { "type": "Polygon", "coordinates": [ [ [ 77.0421817, 11.0353889 ], [ 77.0421817, 11.03521 ], [ 77.0420872, 11.03521 ], [ 77.0420872, 11.0353889 ], [ 77.0421817, 11.0353889 ] ] ] } },
{ "type": "Feature", "properties": { "Survey_Number": "S.No 205/3", "Area_Sqm": 276.66, "Village": "Avinashi_Road_Zone" }, "geometry": { "type": "Polygon", "coordinates": [ [ [ 77.0433732, 11.0358954 ], [ 77.0434852, 11.0358997 ], [ 77.043493, 11.0357044 ], [ 77.043381, 11.0357 ], [ 77.0433732, 11.0358954 ] ] ] } },
{ "type": "Feature", "properties": { "Survey_Number": "S.No 205/4", "Area_Sqm": 67.11, "Village": "Avinashi_Road_Zone" }, "geometry": { "type": "Polygon", "coordinates": [ [ [ 77.0437024, 11.035114 ], [ 77.0437723, 11.0351262 ], [ 77.0437857, 11.0350525 ], [ 77.0437158, 11.0350403 ], [ 77.0437024, 11.035114 ] ] ] } },
{ "type": "Feature", "properties": { "Survey_Number": "S.No 205/5", "Area_Sqm": 148.49, "Village": "Avinashi_Road_Zone" }, "geometry": { "type": "Polygon", "coordinates": [ [ [ 77.0412384, 11.0373057 ], [ 77.0414108, 11.0373133 ], [ 77.0414139, 11.0372452 ], [ 77.0412416, 11.0372376 ], [ 77.0412384, 11.0373057 ] ] ] } },
{ "type": "Feature", "properties": { "Survey_Number": "S.No 206/1", "Area_Sqm": 111.25, "Village": "Avinashi_Road_Zone" }, "geometry": { "type": "Polygon", "coordinates": [ [ [ 77.0426139, 11.0353975 ], [ 77.0427226, 11.0354005 ], [ 77.042725, 11.0353195 ], [ 77.0426163, 11.0353165 ], [ 77.0426139, 11.0353975 ] ] ] } },
{ "type": "Feature", "properties": { "Survey_Number": "S.No 206/2", "Area_Sqm": 588.12, "Village": "Avinashi_Road_Zone" }, "geometry": { "type": "Polygon", "coordinates": [ [ [ 77.0401459, 11.0344282 ], [ 77.0405149, 11.0344346 ], [ 77.0405172, 11.0343084 ], [ 77.0401482, 11.034302 ], [ 77.0401459, 11.0344282 ] ] ] } },
{ "type": "Feature", "properties": { "Survey_Number": "S.No 206/3", "Area_Sqm": 216.95, "Village": "Avinashi_Road_Zone" }, "geometry": { "type": "Polygon", "coordinates": [ [ [ 77.0412474, 11.0361196 ], [ 77.0413638, 11.0361261 ], [ 77.0413723, 11.0359789 ], [ 77.0412559, 11.0359725 ], [ 77.0412474, 11.0361196 ] ] ] } },
{ "type": "Feature", "properties": { "Survey_Number": "S.No 206/4", "Area_Sqm": 74.72, "Village": "Avinashi_Road_Zone" }, "geometry": { "type": "Polygon", "coordinates": [ [ [ 77.0435192, 11.0350759 ], [ 77.0436, 11.0350865 ], [ 77.0436098, 11.0350145 ], [ 77.0435291, 11.0350039 ], [ 77.0435192, 11.0350759 ] ] ] } },
{ "type": "Feature", "properties": { "Survey_Number": "S.No 206/5", "Area_Sqm": 135.27, "Village": "Avinashi_Road_Zone" }, "geometry": { "type": "Polygon", "coordinates": [ [ [ 77.0427894, 11.035399 ], [ 77.0429151, 11.035402 ], [ 77.0429173, 11.0353169 ], [ 77.0427915, 11.0353138 ], [ 77.0427894, 11.035399 ] ] ] } },
{ "type": "Feature", "properties": { "Survey_Number": "S.No 207/1", "Area_Sqm": 251.99, "Village": "Avinashi_Road_Zone" }, "geometry": { "type": "Polygon", "coordinates": [ [ [ 77.040337, 11.0346733 ], [ 77.0404533, 11.0346776 ], [ 77.0404599, 11.0345063 ], [ 77.0403435, 11.034502 ], [ 77.040337, 11.0346733 ] ] ] } },
{ "type": "Feature", "properties": { "Survey_Number": "S.No 207/2", "Area_Sqm": 440.57, "Village": "Avinashi_Road_Zone" }, "geometry": { "type": "Polygon", "coordinates": [ [ [ 77.0427053, 11.0348623 ], [ 77.0429053, 11.0348825 ], [ 77.0429264, 11.0347129 ], [ 77.0427229, 11.0346901 ], [ 77.0427053, 11.0348623 ] ] ] } },
{ "type": "Feature", "properties": { "Survey_Number": "S.No 207/3", "Area_Sqm": 173.06, "Village": "Avinashi_Road_Zone" }, "geometry": { "type": "Polygon", "coordinates": [ [ [ 77.0410322, 11.0360592 ], [ 77.0411464, 11.0360636 ], [ 77.0411511, 11.0359437 ], [ 77.0410369, 11.0359394 ], [ 77.0410322, 11.0360592 ] ] ] } },
{ "type": "Feature", "properties": { "Survey_Number": "S.No 207/4", "Area_Sqm": 301.75, "Village": "Avinashi_Road_Zone" }, "geometry": { "type": "Polygon", "coordinates": [ [ [ 77.0416294, 11.0363944 ], [ 77.0417568, 11.0363944 ], [ 77.0417568, 11.0362068 ], [ 77.0416294, 11.0362068 ], [ 77.0416294, 11.0363944 ] ] ] } },
{ "type": "Feature", "properties": { "Survey_Number": "S.No 207/5", "Area_Sqm": 238.06, "Village": "Avinashi_Road_Zone" }, "geometry": { "type": "Polygon", "coordinates": [ [ [ 77.0422576, 11.036389 ], [ 77.0423806, 11.0363933 ], [ 77.0423862, 11.0362402 ], [ 77.0422632, 11.0362359 ], [ 77.0422576, 11.036389 ] ] ] } },
{ "type": "Feature", "properties": { "Survey_Number": "S.No 208/1", "Area_Sqm": 147.1, "Village": "Avinashi_Road_Zone" }, "geometry": { "type": "Polygon", "coordinates": [ [ [ 77.0427443, 11.0352176 ], [ 77.0427477, 11.0351262 ], [ 77.0426204, 11.0351216 ], [ 77.042617, 11.035213 ], [ 77.0427443, 11.0352176 ] ] ] } },
{ "type": "Feature", "properties": { "Survey_Number": "S.No 208/2", "Area_Sqm": 176.19, "Village": "Avinashi_Road_Zone" }, "geometry": { "type": "Polygon", "coordinates": [ [ [ 77.0416095, 11.0373738 ], [ 77.0416023, 11.0374793 ], [ 77.0417341, 11.0374879 ], [ 77.0417412, 11.0373825 ], [ 77.0416095, 11.0373738 ] ] ] } },
{ "type": "Feature", "properties": { "Survey_Number": "S.No 208/3", "Area_Sqm": 750.12, "Village": "Avinashi_Road_Zone" }, "geometry": { "type": "Polygon", "coordinates": [ [ [ 77.0403326, 11.0353264 ], [ 77.0406483, 11.0353198 ], [ 77.0406395, 11.0351431 ], [ 77.0403282, 11.0351238 ], [ 77.0403326, 11.0353264 ] ] ] } },
{ "type": "Feature", "properties": { "Survey_Number": "S.No 208/4", "Area_Sqm": 210.67, "Village": "Avinashi_Road_Zone" }, "geometry": { "type": "Polygon", "coordinates": [ [ [ 77.0424794, 11.036402 ], [ 77.0425694, 11.036402 ], [ 77.0425694, 11.0362166 ], [ 77.0424794, 11.0362166 ], [ 77.0424794, 11.036402 ] ] ] } },
{ "type": "Feature", "properties": { "Survey_Number": "S.No 208/5", "Area_Sqm": 347.13, "Village": "Avinashi_Road_Zone" }, "geometry": { "type": "Polygon", "coordinates": [ [ [ 77.0408799, 11.0375891 ], [ 77.0410226, 11.0375719 ], [ 77.0409988, 11.0373821 ], [ 77.0408561, 11.0373993 ], [ 77.0408799, 11.0375891 ] ] ] } },
{ "type": "Feature", "properties": { "Survey_Number": "S.No 209/1", "Area_Sqm": 47.69, "Village": "Avinashi_Road_Zone" }, "geometry": { "type": "Polygon", "coordinates": [ [ [ 77.0435083, 11.0352146 ], [ 77.0435751, 11.0352207 ], [ 77.0435804, 11.0351646 ], [ 77.0435137, 11.0351585 ], [ 77.0435083, 11.0352146 ] ] ] } },
{ "type": "Feature", "properties": { "Survey_Number": "S.No 209/2", "Area_Sqm": 137.9, "Village": "Avinashi_Road_Zone" }, "geometry": { "type": "Polygon", "coordinates": [ [ [ 77.0412462, 11.0372082 ], [ 77.0414248, 11.0372143 ], [ 77.0414269, 11.0371532 ], [ 77.0412484, 11.0371471 ], [ 77.0412462, 11.0372082 ] ] ] } },
{ "type": "Feature", "properties": { "Survey_Number": "S.No 209/3", "Area_Sqm": 186.06, "Village": "Avinashi_Road_Zone" }, "geometry": { "type": "Polygon", "coordinates": [ [ [ 77.0420565, 11.0350096 ], [ 77.0420565, 11.0351863 ], [ 77.0421399, 11.0351863 ], [ 77.0421399, 11.0350096 ], [ 77.0420565, 11.0350096 ] ] ] } },
{ "type": "Feature", "properties": { "Survey_Number": "S.No 209/4", "Area_Sqm": 161.5, "Village": "Avinashi_Road_Zone" }, "geometry": { "type": "Polygon", "coordinates": [ [ [ 77.0398802, 11.0341043 ], [ 77.0399856, 11.0341064 ], [ 77.0399882, 11.0339852 ], [ 77.0398827, 11.033983 ], [ 77.0398802, 11.0341043 ] ] ] } },
{ "type": "Feature", "properties": { "Survey_Number": "S.No 209/5", "Area_Sqm": 101.17, "Village": "Avinashi_Road_Zone" }, "geometry": { "type": "Polygon", "coordinates": [ [ [ 77.0430456, 11.0353197 ], [ 77.0430471, 11.0352511 ], [ 77.0429304, 11.0352486 ], [ 77.0429288, 11.0353172 ], [ 77.0430456, 11.0353197 ] ] ] } },
{ "type": "Feature", "properties": { "Survey_Number": "S.No 210/1", "Area_Sqm": 188.11, "Village": "Avinashi_Road_Zone" }, "geometry": { "type": "Polygon", "coordinates": [ [ [ 77.039856, 11.0347725 ], [ 77.03999, 11.0347833 ], [ 77.0399992, 11.0346728 ], [ 77.0398652, 11.0346621 ], [ 77.039856, 11.0347725 ] ] ] } },
{ "type": "Feature", "properties": { "Survey_Number": "S.No 210/2", "Area_Sqm": 200.81, "Village": "Avinashi_Road_Zone" }, "geometry": { "type": "Polygon", "coordinates": [ [ [ 77.0408236, 11.0365961 ], [ 77.0409702, 11.0365846 ], [ 77.0409614, 11.0364768 ], [ 77.0408148, 11.0364883 ], [ 77.0408236, 11.0365961 ] ] ] } },
{ "type": "Feature", "properties": { "Survey_Number": "S.No 210/3", "Area_Sqm": 97.85, "Village": "Avinashi_Road_Zone" }, "geometry": { "type": "Polygon", "coordinates": [ [ [ 77.0429307, 11.0352344 ], [ 77.0430363, 11.0352389 ], [ 77.0430396, 11.0351657 ], [ 77.042934, 11.0351611 ], [ 77.0429307, 11.0352344 ] ] ] } },
{ "type": "Feature", "properties": { "Survey_Number": "S.No 210/4", "Area_Sqm": 354.67, "Village": "Avinashi_Road_Zone" }, "geometry": { "type": "Polygon", "coordinates": [ [ [ 77.0401146, 11.0347929 ], [ 77.040346, 11.0348149 ], [ 77.0403579, 11.0346946 ], [ 77.0401264, 11.0346727 ], [ 77.0401146, 11.0347929 ] ] ] } },
{ "type": "Feature", "properties": { "Survey_Number": "S.No 210/5", "Area_Sqm": 444.14, "Village": "Avinashi_Road_Zone" }, "geometry": { "type": "Polygon", "coordinates": [ [ [ 77.0419721, 11.0367878 ], [ 77.0421258, 11.0367899 ], [ 77.0421292, 11.0365612 ], [ 77.0419754, 11.036559 ], [ 77.0419721, 11.0367878 ] ] ] } },
{ "type": "Feature", "properties": { "Survey_Number": "S.No 211/1", "Area_Sqm": 338.18, "Village": "Avinashi_Road_Zone" }, "geometry": { "type": "Polygon", "coordinates": [ [ [ 77.0414429, 11.0367835 ], [ 77.0415746, 11.0367856 ], [ 77.0415781, 11.0365824 ], [ 77.0414463, 11.0365802 ], [ 77.0414429, 11.0367835 ] ] ] } },
{ "type": "Feature", "properties": { "Survey_Number": "S.No 211/2", "Area_Sqm": 139.0, "Village": "Avinashi_Road_Zone" }, "geometry": { "type": "Polygon", "coordinates": [ [ [ 77.0423266, 11.0349265 ], [ 77.0424167, 11.0349295 ], [ 77.042421, 11.0348075 ], [ 77.0423309, 11.0348044 ], [ 77.0423266, 11.0349265 ] ] ] } },
{ "type": "Feature", "properties": { "Survey_Number": "S.No 211/3", "Area_Sqm": 216.79, "Village": "Avinashi_Road_Zone" }, "geometry": { "type": "Polygon", "coordinates": [ [ [ 77.0415825, 11.0376179 ], [ 77.0417428, 11.0376114 ], [ 77.0417384, 11.0375045 ], [ 77.041578, 11.037511 ], [ 77.0415825, 11.0376179 ] ] ] } },
{ "type": "Feature", "properties": { "Survey_Number": "S.No 211/4", "Area_Sqm": 140.42, "Village": "Avinashi_Road_Zone" }, "geometry": { "type": "Polygon", "coordinates": [ [ [ 77.0419708, 11.0352057 ], [ 77.0419676, 11.0353322 ], [ 77.0420555, 11.0353343 ], [ 77.0420587, 11.0352079 ], [ 77.0419708, 11.0352057 ] ] ] } },
{ "type": "Feature", "properties": { "Survey_Number": "S.No 211/5", "Area_Sqm": 158.93, "Village": "Avinashi_Road_Zone" }, "geometry": { "type": "Polygon", "coordinates": [ [ [ 77.0435818, 11.0361024 ], [ 77.0437004, 11.0361045 ], [ 77.0437024, 11.0359984 ], [ 77.0435838, 11.0359963 ], [ 77.0435818, 11.0361024 ] ] ] } },
{ "type": "Feature", "properties": { "Survey_Number": "S.No 212/1", "Area_Sqm": 1004.66, "Village": "Avinashi_Road_Zone" }, "geometry": { "type": "Polygon", "coordinates": [ [ [ 77.0382459, 11.0433802 ], [ 77.0385956, 11.0433985 ], [ 77.0386079, 11.0431716 ], [ 77.0382582, 11.0431533 ], [ 77.0382459, 11.0433802 ] ] ] } },
{ "type": "Feature", "properties": { "Survey_Number": "S.No 212/2", "Area_Sqm": 953.65, "Village": "Avinashi_Road_Zone" }, "geometry": { "type": "Polygon", "coordinates": [ [ [ 77.0459586, 11.0442308 ], [ 77.0458207, 11.0445476 ], [ 77.0456191, 11.0444631 ], [ 77.0457569, 11.0441463 ], [ 77.0459586, 11.0442308 ] ] ] } },
{ "type": "Feature", "properties": { "Survey_Number": "S.No 212/3", "Area_Sqm": 1066.15, "Village": "Avinashi_Road_Zone" }, "geometry": { "type": "Polygon", "coordinates": [ [ [ 77.0394163, 11.0399184 ], [ 77.0395114, 11.0399868 ], [ 77.0395386, 11.0400184 ], [ 77.0395844, 11.0400484 ], [ 77.0396353, 11.0400584 ], [ 77.0396574, 11.0400818 ], [ 77.039671, 11.0401101 ], [ 77.0396285, 11.0401767 ], [ 77.0396438, 11.0401884 ], [ 77.0396065, 11.0402417 ], [ 77.03962, 11.0402534 ], [ 77.0395708, 11.0403251 ], [ 77.0392669, 11.0401217 ], [ 77.0394163, 11.0399184 ] ] ] } },
{ "type": "Feature", "properties": { "Survey_Number": "S.No 212/4", "Area_Sqm": 480.24, "Village": "Avinashi_Road_Zone" }, "geometry": { "type": "Polygon", "coordinates": [ [ [ 77.0333209, 11.0010011 ], [ 77.0330832, 11.0009384 ], [ 77.0331216, 11.000798 ], [ 77.0332128, 11.000822 ], [ 77.0332232, 11.000784 ], [ 77.0332772, 11.0007982 ], [ 77.0332669, 11.0008358 ], [ 77.0333595, 11.0008602 ], [ 77.0333209, 11.0010011 ] ] ] } },
{ "type": "Feature", "properties": { "Survey_Number": "S.No 212/5", "Area_Sqm": 3435.36, "Village": "Avinashi_Road_Zone" }, "geometry": { "type": "Polygon", "coordinates": [ [ [ 77.086108, 11.012676 ], [ 77.086154, 11.0125996 ], [ 77.0859717, 11.0125006 ], [ 77.086039, 11.0123477 ], [ 77.0860885, 11.0122661 ], [ 77.0868318, 11.0126691 ], [ 77.0866778, 11.0129626 ], [ 77.086108, 11.012676 ] ] ] } },
{ "type": "Feature", "properties": { "Survey_Number": "S.No 213/1", "Area_Sqm": 5162.93, "Village": "Avinashi_Road_Zone" }, "geometry": { "type": "Polygon", "coordinates": [ [ [ 77.0868649, 11.012477 ], [ 77.0871187, 11.0120133 ], [ 77.0863849, 11.0116264 ], [ 77.0862526, 11.0118683 ], [ 77.0863556, 11.0119226 ], [ 77.0862342, 11.0121444 ], [ 77.0868649, 11.012477 ] ] ] } },
{ "type": "Feature", "properties": { "Survey_Number": "S.No 213/2", "Area_Sqm": 9958.15, "Village": "Avinashi_Road_Zone" }, "geometry": { "type": "Polygon", "coordinates": [ [ [ 77.0876335, 11.0144919 ], [ 77.0880746, 11.01361 ], [ 77.0872252, 11.0132326 ], [ 77.0869238, 11.0138631 ], [ 77.0870761, 11.0140307 ], [ 77.0871883, 11.014128 ], [ 77.0873393, 11.0142474 ], [ 77.0874397, 11.0143348 ], [ 77.0876335, 11.0144919 ] ] ] } },
{ "type": "Feature", "properties": { "Survey_Number": "S.No 213/3", "Area_Sqm": 992.8, "Village": "Avinashi_Road_Zone" }, "geometry": { "type": "Polygon", "coordinates": [ [ [ 77.0681374, 11.0170701 ], [ 77.0686719, 11.0176295 ], [ 77.068749, 11.0175559 ], [ 77.0682044, 11.017001 ], [ 77.0681374, 11.0170701 ] ] ] } },
{ "type": "Feature", "properties": { "Survey_Number": "S.No 213/4", "Area_Sqm": 394.76, "Village": "Avinashi_Road_Zone" }, "geometry": { "type": "Polygon", "coordinates": [ [ [ 77.0326098, 11.0364813 ], [ 77.0328979, 11.036516 ], [ 77.0328846, 11.0366229 ], [ 77.0325964, 11.0365882 ], [ 77.0326098, 11.0364813 ] ] ] } },
{ "type": "Feature", "properties": { "Survey_Number": "S.No 213/5", "Area_Sqm": 262.53, "Village": "Avinashi_Road_Zone" }, "geometry": { "type": "Polygon", "coordinates": [ [ [ 77.0324665, 11.0366987 ], [ 77.0324835, 11.0364738 ], [ 77.0325755, 11.0364805 ], [ 77.0325584, 11.0367054 ], [ 77.0324665, 11.0366987 ] ] ] } },
{ "type": "Feature", "properties": { "Survey_Number": "S.No 214/1", "Area_Sqm": 638.25, "Village": "Avinashi_Road_Zone" }, "geometry": { "type": "Polygon", "coordinates": [ [ [ 77.0324534, 11.0368969 ], [ 77.032475, 11.0367368 ], [ 77.0327852, 11.0367772 ], [ 77.0327636, 11.0369374 ], [ 77.0324534, 11.0368969 ] ] ] } },
{ "type": "Feature", "properties": { "Survey_Number": "S.No 214/2", "Area_Sqm": 1584.78, "Village": "Avinashi_Road_Zone" }, "geometry": { "type": "Polygon", "coordinates": [ [ [ 77.069872, 11.0580063 ], [ 77.0698692, 11.0582752 ], [ 77.070336, 11.0582798 ], [ 77.0703388, 11.058011 ], [ 77.069872, 11.0580063 ] ] ] } },
{ "type": "Feature", "properties": { "Survey_Number": "S.No 214/3", "Area_Sqm": 2032.41, "Village": "Avinashi_Road_Zone" }, "geometry": { "type": "Polygon", "coordinates": [ [ [ 77.0359882, 11.0392813 ], [ 77.0359592, 11.0398193 ], [ 77.0364505, 11.0398448 ], [ 77.0364595, 11.0396773 ], [ 77.0361794, 11.0396628 ], [ 77.0361994, 11.0392923 ], [ 77.0359882, 11.0392813 ] ] ] } },
{ "type": "Feature", "properties": { "Survey_Number": "S.No 214/4", "Area_Sqm": 115.45, "Village": "Avinashi_Road_Zone" }, "geometry": { "type": "Polygon", "coordinates": [ [ [ 77.0295203, 11.0556195 ], [ 77.0295233, 11.0555522 ], [ 77.0296589, 11.0555581 ], [ 77.0296559, 11.0556254 ], [ 77.0295203, 11.0556195 ] ] ] } },
{ "type": "Feature", "properties": { "Survey_Number": "S.No 214/5", "Area_Sqm": 115.46, "Village": "Avinashi_Road_Zone" }, "geometry": { "type": "Polygon", "coordinates": [ [ [ 77.0291197, 11.0555957 ], [ 77.0291228, 11.0555284 ], [ 77.0292584, 11.0555343 ], [ 77.0292553, 11.0556016 ], [ 77.0291197, 11.0555957 ] ] ] } },
{ "type": "Feature", "properties": { "Survey_Number": "S.No 215/1", "Area_Sqm": 115.41, "Village": "Avinashi_Road_Zone" }, "geometry": { "type": "Polygon", "coordinates": [ [ [ 77.0293422, 11.0559709 ], [ 77.0293452, 11.0559036 ], [ 77.0294809, 11.0559095 ], [ 77.0294778, 11.0559767 ], [ 77.0293422, 11.0559709 ] ] ] } },
{ "type": "Feature", "properties": { "Survey_Number": "S.No 215/2", "Area_Sqm": 115.36, "Village": "Avinashi_Road_Zone" }, "geometry": { "type": "Polygon", "coordinates": [ [ [ 77.0297617, 11.0557123 ], [ 77.0297647, 11.0556451 ], [ 77.0299003, 11.0556509 ], [ 77.0298973, 11.0557182 ], [ 77.0297617, 11.0557123 ] ] ] } },
{ "type": "Feature", "properties": { "Survey_Number": "S.No 215/3", "Area_Sqm": 115.36, "Village": "Avinashi_Road_Zone" }, "geometry": { "type": "Polygon", "coordinates": [ [ [ 77.0295024, 11.0558949 ], [ 77.0295054, 11.0558276 ], [ 77.029641, 11.0558335 ], [ 77.029638, 11.0559007 ], [ 77.0295024, 11.0558949 ] ] ] } },
{ "type": "Feature", "properties": { "Survey_Number": "S.No 215/4", "Area_Sqm": 115.28, "Village": "Avinashi_Road_Zone" }, "geometry": { "type": "Polygon", "coordinates": [ [ [ 77.0293604, 11.0556098 ], [ 77.0293634, 11.0555426 ], [ 77.029499, 11.0555485 ], [ 77.029496, 11.0556157 ], [ 77.0293604, 11.0556098 ] ] ] } },
{ "type": "Feature", "properties": { "Survey_Number": "S.No 215/5", "Area_Sqm": 115.28, "Village": "Avinashi_Road_Zone" }, "geometry": { "type": "Polygon", "coordinates": [ [ [ 77.0295253, 11.0554368 ], [ 77.0295283, 11.0553696 ], [ 77.0296639, 11.0553755 ], [ 77.0296609, 11.0554427 ], [ 77.0295253, 11.0554368 ] ] ] } },
{ "type": "Feature", "properties": { "Survey_Number": "S.No 216/1", "Area_Sqm": 115.36, "Village": "Avinashi_Road_Zone" }, "geometry": { "type": "Polygon", "coordinates": [ [ [ 77.0297299, 11.0563713 ], [ 77.0297329, 11.0563041 ], [ 77.0298685, 11.0563099 ], [ 77.0298655, 11.0563772 ], [ 77.0297299, 11.0563713 ] ] ] } },
{ "type": "Feature", "properties": { "Survey_Number": "S.No 216/2", "Area_Sqm": 115.33, "Village": "Avinashi_Road_Zone" }, "geometry": { "type": "Polygon", "coordinates": [ [ [ 77.0291107, 11.0557793 ], [ 77.0291137, 11.0557121 ], [ 77.0292494, 11.055718 ], [ 77.0292463, 11.0557852 ], [ 77.0291107, 11.0557793 ] ] ] } },
{ "type": "Feature", "properties": { "Survey_Number": "S.No 216/3", "Area_Sqm": 115.28, "Village": "Avinashi_Road_Zone" }, "geometry": { "type": "Polygon", "coordinates": [ [ [ 77.0297667, 11.0555296 ], [ 77.0297697, 11.0554624 ], [ 77.0299053, 11.0554683 ], [ 77.0299023, 11.0555355 ], [ 77.0297667, 11.0555296 ] ] ] } },
{ "type": "Feature", "properties": { "Survey_Number": "S.No 216/4", "Area_Sqm": 115.36, "Village": "Avinashi_Road_Zone" }, "geometry": { "type": "Polygon", "coordinates": [ [ [ 77.0297438, 11.0559877 ], [ 77.0297468, 11.0559204 ], [ 77.0298824, 11.0559263 ], [ 77.0298794, 11.0559935 ], [ 77.0297438, 11.0559877 ] ] ] } },
{ "type": "Feature", "properties": { "Survey_Number": "S.No 216/5", "Area_Sqm": 115.36, "Village": "Avinashi_Road_Zone" }, "geometry": { "type": "Polygon", "coordinates": [ [ [ 77.0294968, 11.0563398 ], [ 77.0294998, 11.0562726 ], [ 77.0296354, 11.0562784 ], [ 77.0296324, 11.0563457 ], [ 77.0294968, 11.0563398 ] ] ] } },
{ "type": "Feature", "properties": { "Survey_Number": "S.No 217/1", "Area_Sqm": 115.28, "Village": "Avinashi_Road_Zone" }, "geometry": { "type": "Polygon", "coordinates": [ [ [ 77.0297159, 11.0567376 ], [ 77.0297189, 11.0566704 ], [ 77.0298545, 11.0566763 ], [ 77.0298515, 11.0567435 ], [ 77.0297159, 11.0567376 ] ] ] } },
{ "type": "Feature", "properties": { "Survey_Number": "S.No 217/2", "Area_Sqm": 115.41, "Village": "Avinashi_Road_Zone" }, "geometry": { "type": "Polygon", "coordinates": [ [ [ 77.0295205, 11.0555338 ], [ 77.0295236, 11.0554666 ], [ 77.0296592, 11.0554724 ], [ 77.0296562, 11.0555397 ], [ 77.0295205, 11.0555338 ] ] ] } },
{ "type": "Feature", "properties": { "Survey_Number": "S.No 217/3", "Area_Sqm": 115.36, "Village": "Avinashi_Road_Zone" }, "geometry": { "type": "Polygon", "coordinates": [ [ [ 77.0297302, 11.0562856 ], [ 77.0297332, 11.0562184 ], [ 77.0298688, 11.0562242 ], [ 77.0298658, 11.0562915 ], [ 77.0297302, 11.0562856 ] ] ] } },
{ "type": "Feature", "properties": { "Survey_Number": "S.No 217/4", "Area_Sqm": 115.28, "Village": "Avinashi_Road_Zone" }, "geometry": { "type": "Polygon", "coordinates": [ [ [ 77.0291105, 11.055865 ], [ 77.0291135, 11.0557978 ], [ 77.0292491, 11.0558037 ], [ 77.0292461, 11.0558709 ], [ 77.0291105, 11.055865 ] ] ] } },
{ "type": "Feature", "properties": { "Survey_Number": "S.No 217/5", "Area_Sqm": 115.41, "Village": "Avinashi_Road_Zone" }, "geometry": { "type": "Polygon", "coordinates": [ [ [ 77.0293639, 11.0554286 ], [ 77.029367, 11.0553613 ], [ 77.0295026, 11.0553672 ], [ 77.0294996, 11.0554344 ], [ 77.0293639, 11.0554286 ] ] ] } },
{ "type": "Feature", "properties": { "Survey_Number": "S.No 218/1", "Area_Sqm": 115.41, "Village": "Avinashi_Road_Zone" }, "geometry": { "type": "Polygon", "coordinates": [ [ [ 77.0291013, 11.0560424 ], [ 77.0291044, 11.0559752 ], [ 77.02924, 11.055981 ], [ 77.029237, 11.0560483 ], [ 77.0291013, 11.0560424 ] ] ] } },
{ "type": "Feature", "properties": { "Survey_Number": "S.No 218/2", "Area_Sqm": 115.33, "Village": "Avinashi_Road_Zone" }, "geometry": { "type": "Polygon", "coordinates": [ [ [ 77.0297619, 11.0556266 ], [ 77.029765, 11.0555594 ], [ 77.0299006, 11.0555653 ], [ 77.0298976, 11.0556325 ], [ 77.0297619, 11.0556266 ] ] ] } },
{ "type": "Feature", "properties": { "Survey_Number": "S.No 218/3", "Area_Sqm": 115.45, "Village": "Avinashi_Road_Zone" }, "geometry": { "type": "Polygon", "coordinates": [ [ [ 77.0293425, 11.0558852 ], [ 77.0293455, 11.0558179 ], [ 77.0294811, 11.0558238 ], [ 77.0294781, 11.0558911 ], [ 77.0293425, 11.0558852 ] ] ] } },
{ "type": "Feature", "properties": { "Survey_Number": "S.No 218/4", "Area_Sqm": 115.36, "Village": "Avinashi_Road_Zone" }, "geometry": { "type": "Polygon", "coordinates": [ [ [ 77.0295113, 11.0558032 ], [ 77.0295143, 11.0557359 ], [ 77.0296499, 11.0557418 ], [ 77.0296469, 11.055809 ], [ 77.0295113, 11.0558032 ] ] ] } },
{ "type": "Feature", "properties": { "Survey_Number": "S.No 218/5", "Area_Sqm": 115.41, "Village": "Avinashi_Road_Zone" }, "geometry": { "type": "Polygon", "coordinates": [ [ [ 77.029476, 11.0566146 ], [ 77.0294791, 11.0565473 ], [ 77.0296147, 11.0565532 ], [ 77.0296117, 11.0566204 ], [ 77.029476, 11.0566146 ] ] ] } },
{ "type": "Feature", "properties": { "Survey_Number": "S.No 219/1", "Area_Sqm": 115.28, "Village": "Avinashi_Road_Zone" }, "geometry": { "type": "Polygon", "coordinates": [ [ [ 77.0293606, 11.0555241 ], [ 77.0293636, 11.0554569 ], [ 77.0294992, 11.0554628 ], [ 77.0294962, 11.05553 ], [ 77.0293606, 11.0555241 ] ] ] } },
{ "type": "Feature", "properties": { "Survey_Number": "S.No 219/2", "Area_Sqm": 115.36, "Village": "Avinashi_Road_Zone" }, "geometry": { "type": "Polygon", "coordinates": [ [ [ 77.0297527, 11.055896 ], [ 77.0297557, 11.0558287 ], [ 77.0298913, 11.0558346 ], [ 77.0298883, 11.0559018 ], [ 77.0297527, 11.055896 ] ] ] } },
{ "type": "Feature", "properties": { "Survey_Number": "S.No 219/3", "Area_Sqm": 115.33, "Village": "Avinashi_Road_Zone" }, "geometry": { "type": "Polygon", "coordinates": [ [ [ 77.0290576, 11.0567929 ], [ 77.0290607, 11.0567257 ], [ 77.0291963, 11.0567316 ], [ 77.0291933, 11.0567988 ], [ 77.0290576, 11.0567929 ] ] ] } },
{ "type": "Feature", "properties": { "Survey_Number": "S.No 219/4", "Area_Sqm": 115.41, "Village": "Avinashi_Road_Zone" }, "geometry": { "type": "Polygon", "coordinates": [ [ [ 77.0295255, 11.0553345 ], [ 77.0295286, 11.0552672 ], [ 77.0296642, 11.0552731 ], [ 77.0296612, 11.0553403 ], [ 77.0295255, 11.0553345 ] ] ] } },
{ "type": "Feature", "properties": { "Survey_Number": "S.No 219/5", "Area_Sqm": 121.8, "Village": "Avinashi_Road_Zone" }, "geometry": { "type": "Polygon", "coordinates": [ [ [ 77.0291237, 11.0552988 ], [ 77.0291264, 11.0552262 ], [ 77.029259, 11.0552309 ], [ 77.0292563, 11.0553036 ], [ 77.0291237, 11.0552988 ] ] ] } },
{ "type": "Feature", "properties": { "Survey_Number": "S.No 220/1", "Area_Sqm": 115.46, "Village": "Avinashi_Road_Zone" }, "geometry": { "type": "Polygon", "coordinates": [ [ [ 77.0297923, 11.0553487 ], [ 77.0297954, 11.0552814 ], [ 77.029931, 11.0552873 ], [ 77.0299279, 11.0553546 ], [ 77.0297923, 11.0553487 ] ] ] } },
{ "type": "Feature", "properties": { "Survey_Number": "S.No 220/2", "Area_Sqm": 115.45, "Village": "Avinashi_Road_Zone" }, "geometry": { "type": "Polygon", "coordinates": [ [ [ 77.0293514, 11.0557935 ], [ 77.0293544, 11.0557262 ], [ 77.02949, 11.0557321 ], [ 77.029487, 11.0557994 ], [ 77.0293514, 11.0557935 ] ] ] } },
{ "type": "Feature", "properties": { "Survey_Number": "S.No 220/3", "Area_Sqm": 115.37, "Village": "Avinashi_Road_Zone" }, "geometry": { "type": "Polygon", "coordinates": [ [ [ 77.0290805, 11.0563349 ], [ 77.0290836, 11.0562677 ], [ 77.0292192, 11.0562735 ], [ 77.0292161, 11.0563408 ], [ 77.0290805, 11.0563349 ] ] ] } },
{ "type": "Feature", "properties": { "Survey_Number": "S.No 220/4", "Area_Sqm": 115.36, "Village": "Avinashi_Road_Zone" }, "geometry": { "type": "Polygon", "coordinates": [ [ [ 77.0290808, 11.0562492 ], [ 77.0290838, 11.056182 ], [ 77.0292194, 11.0561878 ], [ 77.0292164, 11.0562551 ], [ 77.0290808, 11.0562492 ] ] ] } },
{ "type": "Feature", "properties": { "Survey_Number": "S.No 220/5", "Area_Sqm": 115.28, "Village": "Avinashi_Road_Zone" }, "geometry": { "type": "Polygon", "coordinates": [ [ [ 77.0291016, 11.0559567 ], [ 77.0291046, 11.0558895 ], [ 77.0292402, 11.0558954 ], [ 77.0292372, 11.0559626 ], [ 77.0291016, 11.0559567 ] ] ] } },
{ "type": "Feature", "properties": { "Survey_Number": "S.No 221/1", "Area_Sqm": 115.41, "Village": "Avinashi_Road_Zone" }, "geometry": { "type": "Polygon", "coordinates": [ [ [ 77.0297669, 11.055444 ], [ 77.02977, 11.0553767 ], [ 77.0299056, 11.0553826 ], [ 77.0299026, 11.0554498 ], [ 77.0297669, 11.055444 ] ] ] } },
{ "type": "Feature", "properties": { "Survey_Number": "S.No 221/2", "Area_Sqm": 115.37, "Village": "Avinashi_Road_Zone" }, "geometry": { "type": "Polygon", "coordinates": [ [ [ 77.0295115, 11.0557175 ], [ 77.0295146, 11.0556502 ], [ 77.0296502, 11.0556561 ], [ 77.0296471, 11.0557233 ], [ 77.0295115, 11.0557175 ] ] ] } },
{ "type": "Feature", "properties": { "Survey_Number": "S.No 221/3", "Area_Sqm": 115.33, "Village": "Avinashi_Road_Zone" }, "geometry": { "type": "Polygon", "coordinates": [ [ [ 77.0297161, 11.0566519 ], [ 77.0297192, 11.0565847 ], [ 77.0298548, 11.0565906 ], [ 77.0298518, 11.0566578 ], [ 77.0297161, 11.0566519 ] ] ] } },
{ "type": "Feature", "properties": { "Survey_Number": "S.No 221/4", "Area_Sqm": 115.28, "Village": "Avinashi_Road_Zone" }, "geometry": { "type": "Polygon", "coordinates": [ [ [ 77.0290668, 11.0566155 ], [ 77.0290698, 11.0565483 ], [ 77.0292054, 11.0565542 ], [ 77.0292024, 11.0566214 ], [ 77.0290668, 11.0566155 ] ] ] } },
{ "type": "Feature", "properties": { "Survey_Number": "S.No 221/5", "Area_Sqm": 115.28, "Village": "Avinashi_Road_Zone" }, "geometry": { "type": "Polygon", "coordinates": [ [ [ 77.0293699, 11.0553206 ], [ 77.0293729, 11.0552534 ], [ 77.0295085, 11.0552593 ], [ 77.0295055, 11.0553265 ], [ 77.0293699, 11.0553206 ] ] ] } },
{ "type": "Feature", "properties": { "Survey_Number": "S.No 222/1", "Area_Sqm": 115.45, "Village": "Avinashi_Road_Zone" }, "geometry": { "type": "Polygon", "coordinates": [ [ [ 77.0291195, 11.0556814 ], [ 77.0291225, 11.0556141 ], [ 77.0292581, 11.05562 ], [ 77.0292551, 11.0556873 ], [ 77.0291195, 11.0556814 ] ] ] } },
{ "type": "Feature", "properties": { "Survey_Number": "S.No 222/2", "Area_Sqm": 115.46, "Village": "Avinashi_Road_Zone" }, "geometry": { "type": "Polygon", "coordinates": [ [ [ 77.0297529, 11.0558103 ], [ 77.029756, 11.055743 ], [ 77.0298916, 11.0557489 ], [ 77.0298885, 11.0558162 ], [ 77.0297529, 11.0558103 ] ] ] } },
{ "type": "Feature", "properties": { "Survey_Number": "S.No 222/3", "Area_Sqm": 115.33, "Village": "Avinashi_Road_Zone" }, "geometry": { "type": "Polygon", "coordinates": [ [ [ 77.0293109, 11.0563307 ], [ 77.029314, 11.0562635 ], [ 77.0294496, 11.0562694 ], [ 77.0294466, 11.0563366 ], [ 77.0293109, 11.0563307 ] ] ] } },
{ "type": "Feature", "properties": { "Survey_Number": "S.No 222/4", "Area_Sqm": 115.36, "Village": "Avinashi_Road_Zone" }, "geometry": { "type": "Polygon", "coordinates": [ [ [ 77.0290574, 11.0568786 ], [ 77.0290604, 11.0568114 ], [ 77.029196, 11.0568172 ], [ 77.029193, 11.0568845 ], [ 77.0290574, 11.0568786 ] ] ] } },
{ "type": "Feature", "properties": { "Survey_Number": "S.No 222/5", "Area_Sqm": 115.45, "Village": "Avinashi_Road_Zone" }, "geometry": { "type": "Polygon", "coordinates": [ [ [ 77.0294858, 11.0565176 ], [ 77.0294888, 11.0564503 ], [ 77.0296244, 11.0564562 ], [ 77.0296214, 11.0565235 ], [ 77.0294858, 11.0565176 ] ] ] } },
{ "type": "Feature", "properties": { "Survey_Number": "S.No 223/1", "Area_Sqm": 115.28, "Village": "Avinashi_Road_Zone" }, "geometry": { "type": "Polygon", "coordinates": [ [ [ 77.0294758, 11.0567002 ], [ 77.0294788, 11.056633 ], [ 77.0296144, 11.0566389 ], [ 77.0296114, 11.0567061 ], [ 77.0294758, 11.0567002 ] ] ] } },
{ "type": "Feature", "properties": { "Survey_Number": "S.No 223/2", "Area_Sqm": 115.45, "Village": "Avinashi_Road_Zone" }, "geometry": { "type": "Polygon", "coordinates": [ [ [ 77.0294861, 11.0564319 ], [ 77.0294891, 11.0563646 ], [ 77.0296247, 11.0563705 ], [ 77.0296217, 11.0564378 ], [ 77.0294861, 11.0564319 ] ] ] } },
{ "type": "Feature", "properties": { "Survey_Number": "S.No 223/3", "Area_Sqm": 115.45, "Village": "Avinashi_Road_Zone" }, "geometry": { "type": "Polygon", "coordinates": [ [ [ 77.0293516, 11.0557078 ], [ 77.0293546, 11.0556405 ], [ 77.0294902, 11.0556464 ], [ 77.0294872, 11.0557137 ], [ 77.0293516, 11.0557078 ] ] ] } },
{ "type": "Feature", "properties": { "Survey_Number": "S.No 223/4", "Area_Sqm": 115.36, "Village": "Avinashi_Road_Zone" }, "geometry": { "type": "Polygon", "coordinates": [ [ [ 77.0293107, 11.0564164 ], [ 77.0293137, 11.0563492 ], [ 77.0294493, 11.056355 ], [ 77.0294463, 11.0564223 ], [ 77.0293107, 11.0564164 ] ] ] } },
{ "type": "Feature", "properties": { "Survey_Number": "S.No 223/5", "Area_Sqm": 115.37, "Village": "Avinashi_Road_Zone" }, "geometry": { "type": "Polygon", "coordinates": [ [ [ 77.0292999, 11.0565124 ], [ 77.029303, 11.0564452 ], [ 77.0294386, 11.056451 ], [ 77.0294355, 11.0565183 ], [ 77.0292999, 11.0565124 ] ] ] } },
{ "type": "Feature", "properties": { "Survey_Number": "S.No 224/1", "Area_Sqm": 115.46, "Village": "Avinashi_Road_Zone" }, "geometry": { "type": "Polygon", "coordinates": [ [ [ 77.0290755, 11.0565176 ], [ 77.0290786, 11.0564503 ], [ 77.0292142, 11.0564562 ], [ 77.0292111, 11.0565235 ], [ 77.0290755, 11.0565176 ] ] ] } },
{ "type": "Feature", "properties": { "Survey_Number": "S.No 224/2", "Area_Sqm": 115.45, "Village": "Avinashi_Road_Zone" }, "geometry": { "type": "Polygon", "coordinates": [ [ [ 77.0290758, 11.0564319 ], [ 77.0290788, 11.0563646 ], [ 77.0292144, 11.0563705 ], [ 77.0292114, 11.0564378 ], [ 77.0290758, 11.0564319 ] ] ] } },
{ "type": "Feature", "properties": { "Survey_Number": "S.No 224/3", "Area_Sqm": 115.36, "Village": "Avinashi_Road_Zone" }, "geometry": { "type": "Polygon", "coordinates": [ [ [ 77.0292997, 11.0565981 ], [ 77.0293027, 11.0565309 ], [ 77.0294383, 11.0565367 ], [ 77.0294353, 11.056604 ], [ 77.0292997, 11.0565981 ] ] ] } },
{ "type": "Feature", "properties": { "Survey_Number": "S.No 224/4", "Area_Sqm": 179.51, "Village": "Avinashi_Road_Zone" }, "geometry": { "type": "Polygon", "coordinates": [ [ [ 77.029797, 11.055253 ], [ 77.0298063, 11.0551601 ], [ 77.0299578, 11.0551746 ], [ 77.0299485, 11.0552676 ], [ 77.029797, 11.055253 ] ] ] } },
{ "type": "Feature", "properties": { "Survey_Number": "S.No 224/5", "Area_Sqm": 115.36, "Village": "Avinashi_Road_Zone" }, "geometry": { "type": "Polygon", "coordinates": [ [ [ 77.0291245, 11.0554987 ], [ 77.0291275, 11.0554315 ], [ 77.0292631, 11.0554373 ], [ 77.0292601, 11.0555046 ], [ 77.0291245, 11.0554987 ] ] ] } },
{ "type": "Feature", "properties": { "Survey_Number": "S.No 225/1", "Area_Sqm": 115.45, "Village": "Avinashi_Road_Zone" }, "geometry": { "type": "Polygon", "coordinates": [ [ [ 77.0297249, 11.056554 ], [ 77.0297279, 11.0564867 ], [ 77.0298635, 11.0564926 ], [ 77.0298605, 11.0565599 ], [ 77.0297249, 11.056554 ] ] ] } },
{ "type": "Feature", "properties": { "Survey_Number": "S.No 225/2", "Area_Sqm": 115.28, "Village": "Avinashi_Road_Zone" }, "geometry": { "type": "Polygon", "coordinates": [ [ [ 77.0295022, 11.0559805 ], [ 77.0295052, 11.0559133 ], [ 77.0296408, 11.0559192 ], [ 77.0296378, 11.0559864 ], [ 77.0295022, 11.0559805 ] ] ] } },
{ "type": "Feature", "properties": { "Survey_Number": "S.No 225/3", "Area_Sqm": 115.28, "Village": "Avinashi_Road_Zone" }, "geometry": { "type": "Polygon", "coordinates": [ [ [ 77.029707, 11.0568293 ], [ 77.02971, 11.0567621 ], [ 77.0298456, 11.056768 ], [ 77.0298426, 11.0568352 ], [ 77.029707, 11.0568293 ] ] ] } },
{ "type": "Feature", "properties": { "Survey_Number": "S.No 225/4", "Area_Sqm": 115.29, "Village": "Avinashi_Road_Zone" }, "geometry": { "type": "Polygon", "coordinates": [ [ [ 77.0290665, 11.0567012 ], [ 77.0290696, 11.056634 ], [ 77.0292052, 11.0566399 ], [ 77.0292021, 11.0567071 ], [ 77.0290665, 11.0567012 ] ] ] } },
{ "type": "Feature", "properties": { "Survey_Number": "S.No 225/5", "Area_Sqm": 115.29, "Village": "Avinashi_Road_Zone" }, "geometry": { "type": "Polygon", "coordinates": [ [ [ 77.0291247, 11.055413 ], [ 77.0291278, 11.0553458 ], [ 77.0292634, 11.0553517 ], [ 77.0292603, 11.0554189 ], [ 77.0291247, 11.055413 ] ] ] } },
{ "type": "Feature", "properties": { "Survey_Number": "S.No 226/1", "Area_Sqm": 115.36, "Village": "Avinashi_Road_Zone" }, "geometry": { "type": "Polygon", "coordinates": [ [ [ 77.0297436, 11.0560734 ], [ 77.0297466, 11.0560061 ], [ 77.0298822, 11.056012 ], [ 77.0298792, 11.0560792 ], [ 77.0297436, 11.0560734 ] ] ] } },
{ "type": "Feature", "properties": { "Survey_Number": "S.No 226/2", "Area_Sqm": 115.37, "Village": "Avinashi_Road_Zone" }, "geometry": { "type": "Polygon", "coordinates": [ [ [ 77.0292939, 11.0566941 ], [ 77.029297, 11.0566269 ], [ 77.0294326, 11.0566327 ], [ 77.0294295, 11.0567 ], [ 77.0292939, 11.0566941 ] ] ] } },
{ "type": "Feature", "properties": { "Survey_Number": "S.No 226/3", "Area_Sqm": 115.5, "Village": "Avinashi_Road_Zone" }, "geometry": { "type": "Polygon", "coordinates": [ [ [ 77.0297251, 11.0564683 ], [ 77.0297282, 11.056401 ], [ 77.0298638, 11.0564069 ], [ 77.0298608, 11.0564742 ], [ 77.0297251, 11.0564683 ] ] ] } },
{ "type": "Feature", "properties": { "Survey_Number": "S.No 226/4", "Area_Sqm": 1065.15, "Village": "Avinashi_Road_Zone" }, "geometry": { "type": "Polygon", "coordinates": [ [ [ 77.0558766, 10.9954132 ], [ 77.0562628, 10.9955844 ], [ 77.056362, 10.995408 ], [ 77.0560053, 10.9952395 ], [ 77.0558766, 10.9954132 ] ] ] } },
{ "type": "Feature", "properties": { "Survey_Number": "S.No 226/5", "Area_Sqm": 209.05, "Village": "Avinashi_Road_Zone" }, "geometry": { "type": "Polygon", "coordinates": [ [ [ 77.0623672, 11.003015 ], [ 77.062349, 11.0031447 ], [ 77.0623835, 11.0032006 ], [ 77.0624282, 11.0032145 ], [ 77.0624689, 11.003027 ], [ 77.0623672, 11.003015 ] ] ] } },
{ "type": "Feature", "properties": { "Survey_Number": "S.No 227/1", "Area_Sqm": 73.8, "Village": "Avinashi_Road_Zone" }, "geometry": { "type": "Polygon", "coordinates": [ [ [ 77.0623864, 11.0033239 ], [ 77.0623954, 11.0032326 ], [ 77.0624588, 11.0032386 ], [ 77.0624498, 11.00333 ], [ 77.0623864, 11.0033239 ] ] ] } },
{ "type": "Feature", "properties": { "Survey_Number": "S.No 227/2", "Area_Sqm": 241.07, "Village": "Avinashi_Road_Zone" }, "geometry": { "type": "Polygon", "coordinates": [ [ [ 77.0624597, 11.0031765 ], [ 77.0624922, 11.0030428 ], [ 77.0626244, 11.0030747 ], [ 77.0625898, 11.0032144 ], [ 77.0625045, 11.0031895 ], [ 77.0624597, 11.0031765 ] ] ] } },
{ "type": "Feature", "properties": { "Survey_Number": "S.No 227/3", "Area_Sqm": 80.1, "Village": "Avinashi_Road_Zone" }, "geometry": { "type": "Polygon", "coordinates": [ [ [ 77.0624902, 11.0032543 ], [ 77.0625045, 11.0031895 ], [ 77.0625898, 11.0032144 ], [ 77.0625749, 11.0032887 ], [ 77.0624902, 11.0032543 ] ] ] } },
{ "type": "Feature", "properties": { "Survey_Number": "S.No 227/4", "Area_Sqm": 79.19, "Village": "Avinashi_Road_Zone" }, "geometry": { "type": "Polygon", "coordinates": [ [ [ 77.062461, 11.0033266 ], [ 77.0624753, 11.0032748 ], [ 77.0625749, 11.0032887 ], [ 77.0625545, 11.0033586 ], [ 77.062461, 11.0033266 ] ] ] } },
{ "type": "Feature", "properties": { "Survey_Number": "S.No 227/5", "Area_Sqm": 76.9, "Village": "Avinashi_Road_Zone" }, "geometry": { "type": "Polygon", "coordinates": [ [ [ 77.0624242, 11.0034852 ], [ 77.062437, 11.0034191 ], [ 77.0625259, 11.0034357 ], [ 77.0625132, 11.0035018 ], [ 77.0624242, 11.0034852 ] ] ] } },
{ "type": "Feature", "properties": { "Survey_Number": "S.No 228/1", "Area_Sqm": 157.08, "Village": "Avinashi_Road_Zone" }, "geometry": { "type": "Polygon", "coordinates": [ [ [ 77.0625192, 11.0035125 ], [ 77.0625363, 11.0034183 ], [ 77.0625978, 11.0034291 ], [ 77.0626643, 11.0034408 ], [ 77.0626472, 11.003535 ], [ 77.0625192, 11.0035125 ] ] ] } },
{ "type": "Feature", "properties": { "Survey_Number": "S.No 228/2", "Area_Sqm": 136.1, "Village": "Avinashi_Road_Zone" }, "geometry": { "type": "Polygon", "coordinates": [ [ [ 77.0623897, 11.0036685 ], [ 77.06241, 11.0035251 ], [ 77.0624838, 11.0035352 ], [ 77.0624634, 11.0036786 ], [ 77.0623897, 11.0036685 ] ] ] } },
{ "type": "Feature", "properties": { "Survey_Number": "S.No 228/3", "Area_Sqm": 166.34, "Village": "Avinashi_Road_Zone" }, "geometry": { "type": "Polygon", "coordinates": [ [ [ 77.0623643, 11.0038222 ], [ 77.062398, 11.0036895 ], [ 77.0625064, 11.003716 ], [ 77.0624834, 11.0038067 ], [ 77.0624362, 11.0037952 ], [ 77.0624255, 11.0038372 ], [ 77.0623643, 11.0038222 ] ] ] } },
{ "type": "Feature", "properties": { "Survey_Number": "S.No 228/4", "Area_Sqm": 128.26, "Village": "Avinashi_Road_Zone" }, "geometry": { "type": "Polygon", "coordinates": [ [ [ 77.0624207, 11.0039272 ], [ 77.0624423, 11.0038682 ], [ 77.0625948, 11.003903 ], [ 77.0625748, 11.0039665 ], [ 77.0624207, 11.0039272 ] ] ] } },
{ "type": "Feature", "properties": { "Survey_Number": "S.No 228/5", "Area_Sqm": 167.81, "Village": "Avinashi_Road_Zone" }, "geometry": { "type": "Polygon", "coordinates": [ [ [ 77.0624864, 11.0038691 ], [ 77.0624922, 11.0038121 ], [ 77.0625261, 11.0038154 ], [ 77.0625345, 11.0037328 ], [ 77.062615, 11.0037408 ], [ 77.0626006, 11.0038804 ], [ 77.0625483, 11.0038752 ], [ 77.0624921, 11.0038697 ], [ 77.0624864, 11.0038691 ] ] ] } },
{ "type": "Feature", "properties": { "Survey_Number": "S.No 229/1", "Area_Sqm": 322.34, "Village": "Avinashi_Road_Zone" }, "geometry": { "type": "Polygon", "coordinates": [ [ [ 77.0624765, 11.0036826 ], [ 77.0625005, 11.0035306 ], [ 77.0626646, 11.0035556 ], [ 77.0626406, 11.0037075 ], [ 77.0624765, 11.0036826 ] ] ] } },
{ "type": "Feature", "properties": { "Survey_Number": "S.No 229/2", "Area_Sqm": 206.64, "Village": "Avinashi_Road_Zone" }, "geometry": { "type": "Polygon", "coordinates": [ [ [ 77.0625639, 11.0033663 ], [ 77.0626322, 11.0031162 ], [ 77.0626933, 11.0031323 ], [ 77.0626249, 11.0033824 ], [ 77.0625639, 11.0033663 ] ] ] } },
{ "type": "Feature", "properties": { "Survey_Number": "S.No 229/3", "Area_Sqm": 222.28, "Village": "Avinashi_Road_Zone" }, "geometry": { "type": "Polygon", "coordinates": [ [ [ 77.0626283, 11.0037634 ], [ 77.0627351, 11.0037926 ], [ 77.0627785, 11.0036396 ], [ 77.0626717, 11.0036104 ], [ 77.0626283, 11.0037634 ] ] ] } },
{ "type": "Feature", "properties": { "Survey_Number": "S.No 229/4", "Area_Sqm": 108.65, "Village": "Avinashi_Road_Zone" }, "geometry": { "type": "Polygon", "coordinates": [ [ [ 77.0625964, 11.003971 ], [ 77.0626857, 11.0039862 ], [ 77.0627042, 11.0038954 ], [ 77.0626133, 11.0038773 ], [ 77.0625964, 11.003971 ] ] ] } },
{ "type": "Feature", "properties": { "Survey_Number": "S.No 229/5", "Area_Sqm": 41.82, "Village": "Avinashi_Road_Zone" }, "geometry": { "type": "Polygon", "coordinates": [ [ [ 77.0626473, 11.0033839 ], [ 77.0626668, 11.0033168 ], [ 77.0627125, 11.0033296 ], [ 77.062693, 11.0033966 ], [ 77.0626473, 11.0033839 ] ] ] } },
{ "type": "Feature", "properties": { "Survey_Number": "S.No 230/1", "Area_Sqm": 33.05, "Village": "Avinashi_Road_Zone" }, "geometry": { "type": "Polygon", "coordinates": [ [ [ 77.0626773, 11.0032456 ], [ 77.0626972, 11.0031956 ], [ 77.0627426, 11.0032131 ], [ 77.0627227, 11.0032631 ], [ 77.0626773, 11.0032456 ] ] ] } },
{ "type": "Feature", "properties": { "Survey_Number": "S.No 230/2", "Area_Sqm": 509.19, "Village": "Avinashi_Road_Zone" }, "geometry": { "type": "Polygon", "coordinates": [ [ [ 77.0626769, 11.0009157 ], [ 77.0627573, 11.0008236 ], [ 77.0630099, 11.0010362 ], [ 77.0629296, 11.0011282 ], [ 77.0626769, 11.0009157 ] ] ] } },
{ "type": "Feature", "properties": { "Survey_Number": "S.No 230/3", "Area_Sqm": 276.26, "Village": "Avinashi_Road_Zone" }, "geometry": { "type": "Polygon", "coordinates": [ [ [ 77.0628373, 11.0013742 ], [ 77.0629085, 11.0012762 ], [ 77.0630565, 11.00138 ], [ 77.0629852, 11.0014779 ], [ 77.0628373, 11.0013742 ] ] ] } },
{ "type": "Feature", "properties": { "Survey_Number": "S.No 230/4", "Area_Sqm": 167.35, "Village": "Avinashi_Road_Zone" }, "geometry": { "type": "Polygon", "coordinates": [ [ [ 77.0630194, 11.0013289 ], [ 77.0630936, 11.0012182 ], [ 77.0631772, 11.0012722 ], [ 77.0631031, 11.0013828 ], [ 77.0630194, 11.0013289 ] ] ] } },
{ "type": "Feature", "properties": { "Survey_Number": "S.No 230/5", "Area_Sqm": 210.11, "Village": "Avinashi_Road_Zone" }, "geometry": { "type": "Polygon", "coordinates": [ [ [ 77.063239, 11.0015068 ], [ 77.0633353, 11.0013923 ], [ 77.0634217, 11.0014624 ], [ 77.0633254, 11.0015769 ], [ 77.063239, 11.0015068 ] ] ] } },
{ "type": "Feature", "properties": { "Survey_Number": "S.No 231/1", "Area_Sqm": 342.66, "Village": "Avinashi_Road_Zone" }, "geometry": { "type": "Polygon", "coordinates": [ [ [ 77.0631881, 11.0018666 ], [ 77.0633111, 11.0019508 ], [ 77.0634165, 11.0018023 ], [ 77.0632934, 11.0017181 ], [ 77.0631881, 11.0018666 ] ] ] } },
{ "type": "Feature", "properties": { "Survey_Number": "S.No 231/2", "Area_Sqm": 470.0, "Village": "Avinashi_Road_Zone" }, "geometry": { "type": "Polygon", "coordinates": [ [ [ 77.0631477, 11.0011612 ], [ 77.0632472, 11.0010201 ], [ 77.0634256, 11.0011413 ], [ 77.063326, 11.0012824 ], [ 77.0631477, 11.0011612 ] ] ] } },
{ "type": "Feature", "properties": { "Survey_Number": "S.No 231/3", "Area_Sqm": 153.26, "Village": "Avinashi_Road_Zone" }, "geometry": { "type": "Polygon", "coordinates": [ [ [ 77.0630885, 11.0007473 ], [ 77.063142, 11.0006564 ], [ 77.0632421, 11.0007131 ], [ 77.0631886, 11.0008041 ], [ 77.0630885, 11.0007473 ] ] ] } },
{ "type": "Feature", "properties": { "Survey_Number": "S.No 231/4", "Area_Sqm": 363.09, "Village": "Avinashi_Road_Zone" }, "geometry": { "type": "Polygon", "coordinates": [ [ [ 77.0632382, 11.0008348 ], [ 77.0633573, 11.0007127 ], [ 77.0634802, 11.0008282 ], [ 77.0633611, 11.0009503 ], [ 77.0632382, 11.0008348 ] ] ] } },
{ "type": "Feature", "properties": { "Survey_Number": "S.No 231/5", "Area_Sqm": 373.78, "Village": "Avinashi_Road_Zone" }, "geometry": { "type": "Polygon", "coordinates": [ [ [ 77.0633296, 11.0010357 ], [ 77.0634539, 11.0008681 ], [ 77.0635694, 11.0009506 ], [ 77.063445, 11.0011182 ], [ 77.0633296, 11.0010357 ] ] ] } },
{ "type": "Feature", "properties": { "Survey_Number": "S.No 232/1", "Area_Sqm": 598.17, "Village": "Avinashi_Road_Zone" }, "geometry": { "type": "Polygon", "coordinates": [ [ [ 77.0636118, 11.0008737 ], [ 77.0639182, 11.0004934 ], [ 77.0639949, 11.0005529 ], [ 77.0636884, 11.0009332 ], [ 77.0636118, 11.0008737 ] ] ] } },
{ "type": "Feature", "properties": { "Survey_Number": "S.No 232/2", "Area_Sqm": 258.74, "Village": "Avinashi_Road_Zone" }, "geometry": { "type": "Polygon", "coordinates": [ [ [ 77.0635805, 11.0011009 ], [ 77.0636573, 11.0009994 ], [ 77.0637875, 11.0010942 ], [ 77.0637107, 11.0011957 ], [ 77.0635805, 11.0011009 ] ] ] } },
{ "type": "Feature", "properties": { "Survey_Number": "S.No 232/3", "Area_Sqm": 924.2, "Village": "Avinashi_Road_Zone" }, "geometry": { "type": "Polygon", "coordinates": [ [ [ 77.0637508, 11.0010429 ], [ 77.0639488, 11.0007619 ], [ 77.0641277, 11.0008937 ], [ 77.063924, 11.0011602 ], [ 77.0637508, 11.0010429 ] ] ] } },
{ "type": "Feature", "properties": { "Survey_Number": "S.No 232/4", "Area_Sqm": 356.74, "Village": "Avinashi_Road_Zone" }, "geometry": { "type": "Polygon", "coordinates": [ [ [ 77.0639598, 11.0007329 ], [ 77.0640553, 11.0005974 ], [ 77.0641474, 11.0006321 ], [ 77.0641049, 11.0007363 ], [ 77.0641828, 11.000785 ], [ 77.0641367, 11.0008579 ], [ 77.0639598, 11.0007329 ] ] ] } },
{ "type": "Feature", "properties": { "Survey_Number": "S.No 232/5", "Area_Sqm": 354.25, "Village": "Avinashi_Road_Zone" }, "geometry": { "type": "Polygon", "coordinates": [ [ [ 77.1170353, 11.0493742 ], [ 77.117064, 11.0493288 ], [ 77.11733, 11.0494904 ], [ 77.1173205, 11.0495055 ], [ 77.1174996, 11.0496144 ], [ 77.1174749, 11.0496535 ], [ 77.1171607, 11.0494625 ], [ 77.1171662, 11.0494538 ], [ 77.1170353, 11.0493742 ] ] ] } },
{ "type": "Feature", "properties": { "Survey_Number": "S.No 233/1", "Area_Sqm": 97.87, "Village": "Avinashi_Road_Zone" }, "geometry": { "type": "Polygon", "coordinates": [ [ [ 77.1170924, 11.0498137 ], [ 77.1171272, 11.0497562 ], [ 77.1172269, 11.0498142 ], [ 77.1171921, 11.0498717 ], [ 77.1170924, 11.0498137 ] ] ] } },
{ "type": "Feature", "properties": { "Survey_Number": "S.No 233/2", "Area_Sqm": 61.95, "Village": "Avinashi_Road_Zone" }, "geometry": { "type": "Polygon", "coordinates": [ [ [ 77.0680036, 11.0161963 ], [ 77.0680624, 11.016275 ], [ 77.0680218, 11.0163042 ], [ 77.0679631, 11.0162255 ], [ 77.0680036, 11.0161963 ] ] ] } },
{ "type": "Feature", "properties": { "Survey_Number": "S.No 233/3", "Area_Sqm": 206.78, "Village": "Avinashi_Road_Zone" }, "geometry": { "type": "Polygon", "coordinates": [ [ [ 77.0677176, 11.0158028 ], [ 77.0677534, 11.0157775 ], [ 77.0679741, 11.0160794 ], [ 77.0679383, 11.0161046 ], [ 77.0677176, 11.0158028 ] ] ] } },
{ "type": "Feature", "properties": { "Survey_Number": "S.No 233/4", "Area_Sqm": 31.57, "Village": "Avinashi_Road_Zone" }, "geometry": { "type": "Polygon", "coordinates": [ [ [ 77.0655983, 11.0129164 ], [ 77.0656365, 11.0129674 ], [ 77.0656047, 11.0129904 ], [ 77.0655665, 11.0129394 ], [ 77.0655983, 11.0129164 ] ] ] } },
{ "type": "Feature", "properties": { "Survey_Number": "S.No 233/5", "Area_Sqm": 78.31, "Village": "Avinashi_Road_Zone" }, "geometry": { "type": "Polygon", "coordinates": [ [ [ 77.0724642, 11.0209433 ], [ 77.0724939, 11.0209092 ], [ 77.0725476, 11.0209542 ], [ 77.0725988, 11.0209972 ], [ 77.072569, 11.0210314 ], [ 77.0724642, 11.0209433 ] ] ] } },
{ "type": "Feature", "properties": { "Survey_Number": "S.No 234/1", "Area_Sqm": 77.89, "Village": "Avinashi_Road_Zone" }, "geometry": { "type": "Polygon", "coordinates": [ [ [ 77.0726867, 11.0211549 ], [ 77.0727158, 11.0211237 ], [ 77.0728234, 11.0212201 ], [ 77.0727943, 11.0212514 ], [ 77.0726867, 11.0211549 ] ] ] } },
{ "type": "Feature", "properties": { "Survey_Number": "S.No 234/2", "Area_Sqm": 1636.44, "Village": "Avinashi_Road_Zone" }, "geometry": { "type": "Polygon", "coordinates": [ [ [ 77.0285203, 11.0281357 ], [ 77.0285488, 11.0280025 ], [ 77.0286231, 11.0280101 ], [ 77.0286497, 11.0278749 ], [ 77.0286383, 11.0278711 ], [ 77.0286478, 11.0278273 ], [ 77.0286136, 11.0278216 ], [ 77.0286383, 11.0277169 ], [ 77.0284365, 11.027677 ], [ 77.0284232, 11.0277265 ], [ 77.0283737, 11.0277169 ], [ 77.0283585, 11.0277721 ], [ 77.0283185, 11.0277721 ], [ 77.0282462, 11.0280957 ], [ 77.0285203, 11.0281357 ] ] ] } },
{ "type": "Feature", "properties": { "Survey_Number": "S.No 234/3", "Area_Sqm": 329.03, "Village": "Avinashi_Road_Zone" }, "geometry": { "type": "Polygon", "coordinates": [ [ [ 77.0286857, 11.0280347 ], [ 77.0287162, 11.0280366 ], [ 77.0287067, 11.0280804 ], [ 77.0287619, 11.0280899 ], [ 77.0288304, 11.0278005 ], [ 77.0287352, 11.0277796 ], [ 77.0286857, 11.0280347 ] ] ] } },
{ "type": "Feature", "properties": { "Survey_Number": "S.No 234/4", "Area_Sqm": 563.66, "Village": "Avinashi_Road_Zone" }, "geometry": { "type": "Polygon", "coordinates": [ [ [ 77.0291806, 11.0253159 ], [ 77.0293777, 11.0256856 ], [ 77.0294705, 11.0256428 ], [ 77.0293819, 11.0254743 ], [ 77.0293977, 11.0254629 ], [ 77.0293862, 11.0254386 ], [ 77.0293962, 11.0254344 ], [ 77.0293805, 11.0254044 ], [ 77.0293477, 11.0254201 ], [ 77.0292649, 11.025263 ], [ 77.0291806, 11.0253159 ] ] ] } },
{ "type": "Feature", "properties": { "Survey_Number": "S.No 234/5", "Area_Sqm": 1137.85, "Village": "Avinashi_Road_Zone" }, "geometry": { "type": "Polygon", "coordinates": [ [ [ 77.0290341, 11.0281137 ], [ 77.0292768, 11.0281565 ], [ 77.0293446, 11.0277746 ], [ 77.0292197, 11.0277496 ], [ 77.0292125, 11.0277924 ], [ 77.0290983, 11.0277746 ], [ 77.0290341, 11.0281137 ] ] ] } },
{ "type": "Feature", "properties": { "Survey_Number": "S.No 235/1", "Area_Sqm": 864.51, "Village": "Avinashi_Road_Zone" }, "geometry": { "type": "Polygon", "coordinates": [ [ [ 77.0280708, 11.028771 ], [ 77.0281126, 11.0287827 ], [ 77.0281541, 11.0287353 ], [ 77.028279, 11.028655 ], [ 77.0283474, 11.0286342 ], [ 77.0284188, 11.0286193 ], [ 77.0285377, 11.0286134 ], [ 77.0286537, 11.0286342 ], [ 77.0287549, 11.0286669 ], [ 77.028853, 11.0287443 ], [ 77.0289274, 11.0288157 ], [ 77.028969, 11.0288989 ], [ 77.0290017, 11.0289882 ], [ 77.0290493, 11.0289911 ], [ 77.0290523, 11.0289495 ], [ 77.028966, 11.02878 ], [ 77.0288709, 11.0286848 ], [ 77.0287846, 11.0286283 ], [ 77.0286597, 11.0285837 ], [ 77.0286686, 11.0285033 ], [ 77.0285824, 11.0284944 ], [ 77.0285734, 11.0285569 ], [ 77.0285139, 11.0285539 ], [ 77.0283771, 11.0285688 ], [ 77.0282373, 11.0286193 ], [ 77.0281362, 11.0286907 ], [ 77.0280708, 11.028771 ] ] ] } },
{ "type": "Feature", "properties": { "Survey_Number": "S.No 235/2", "Area_Sqm": 265.22, "Village": "Avinashi_Road_Zone" }, "geometry": { "type": "Polygon", "coordinates": [ [ [ 77.0287562, 11.0281356 ], [ 77.0289655, 11.0281832 ], [ 77.028996, 11.0280861 ], [ 77.0287809, 11.0280461 ], [ 77.0287562, 11.0281356 ] ] ] } },
{ "type": "Feature", "properties": { "Survey_Number": "S.No 235/3", "Area_Sqm": 516.07, "Village": "Avinashi_Road_Zone" }, "geometry": { "type": "Polygon", "coordinates": [ [ [ 77.028883, 11.0284874 ], [ 77.0289258, 11.0284945 ], [ 77.0289187, 11.0285409 ], [ 77.0291435, 11.0285837 ], [ 77.0291828, 11.0284374 ], [ 77.0288973, 11.0283803 ], [ 77.028883, 11.0284874 ] ] ] } },
{ "type": "Feature", "properties": { "Survey_Number": "S.No 235/4", "Area_Sqm": 189.34, "Village": "Avinashi_Road_Zone" }, "geometry": { "type": "Polygon", "coordinates": [ [ [ 77.0294248, 11.0254858 ], [ 77.0294705, 11.0255771 ], [ 77.0295633, 11.02554 ], [ 77.0295518, 11.0255115 ], [ 77.0296018, 11.0254886 ], [ 77.029579, 11.0254187 ], [ 77.0294248, 11.0254858 ] ] ] } },
{ "type": "Feature", "properties": { "Survey_Number": "S.No 235/5", "Area_Sqm": 514.27, "Village": "Avinashi_Road_Zone" }, "geometry": { "type": "Polygon", "coordinates": [ [ [ 77.0293995, 11.0261593 ], [ 77.0295006, 11.0261653 ], [ 77.0295482, 11.0258024 ], [ 77.0294322, 11.0257816 ], [ 77.0293995, 11.0261593 ] ] ] } },
{ "type": "Feature", "properties": { "Survey_Number": "S.No 236/1", "Area_Sqm": 1526.49, "Village": "Avinashi_Road_Zone" }, "geometry": { "type": "Polygon", "coordinates": [ [ [ 77.0282042, 11.0250469 ], [ 77.0282955, 11.0250683 ], [ 77.0283003, 11.0250422 ], [ 77.0286406, 11.0251136 ], [ 77.0286406, 11.0251326 ], [ 77.0287548, 11.0251588 ], [ 77.0287595, 11.0251421 ], [ 77.0291069, 11.0252278 ], [ 77.0291022, 11.0252539 ], [ 77.0291878, 11.0252682 ], [ 77.0292354, 11.0251159 ], [ 77.029145, 11.0250945 ], [ 77.0291331, 11.0251255 ], [ 77.0287905, 11.0250422 ], [ 77.0287976, 11.0250303 ], [ 77.028681, 11.0250089 ], [ 77.0286763, 11.0250184 ], [ 77.0283217, 11.0249351 ], [ 77.0283336, 11.024897 ], [ 77.0282503, 11.0248747 ], [ 77.0282042, 11.0250469 ] ] ] } },
{ "type": "Feature", "properties": { "Survey_Number": "S.No 236/2", "Area_Sqm": 924.59, "Village": "Avinashi_Road_Zone" }, "geometry": { "type": "Polygon", "coordinates": [ [ [ 77.0282094, 11.0283728 ], [ 77.0287555, 11.0284692 ], [ 77.0287626, 11.028437 ], [ 77.0288376, 11.0284513 ], [ 77.0288662, 11.0283728 ], [ 77.0282273, 11.0282514 ], [ 77.0282094, 11.0283728 ] ] ] } },
{ "type": "Feature", "properties": { "Survey_Number": "S.No 236/3", "Area_Sqm": 272.86, "Village": "Avinashi_Road_Zone" }, "geometry": { "type": "Polygon", "coordinates": [ [ [ 77.0294219, 11.0254172 ], [ 77.0294505, 11.0254015 ], [ 77.029459, 11.0254244 ], [ 77.029489, 11.0254158 ], [ 77.0294833, 11.0253915 ], [ 77.0295076, 11.0253773 ], [ 77.0294219, 11.0251931 ], [ 77.029322, 11.0252402 ], [ 77.0294219, 11.0254172 ] ] ] } },
{ "type": "Feature", "properties": { "Survey_Number": "S.No 236/4", "Area_Sqm": 305.54, "Village": "Avinashi_Road_Zone" }, "geometry": { "type": "Polygon", "coordinates": [ [ [ 77.068992, 11.004948 ], [ 77.0690061, 11.0049971 ], [ 77.0690363, 11.0050377 ], [ 77.0692491, 11.0049311 ], [ 77.0692016, 11.0048421 ], [ 77.068992, 11.004948 ] ] ] } },
{ "type": "Feature", "properties": { "Survey_Number": "S.No 236/5", "Area_Sqm": 1440.14, "Village": "Avinashi_Road_Zone" }, "geometry": { "type": "Polygon", "coordinates": [ [ [ 77.0713768, 11.0153871 ], [ 77.0716461, 11.0153983 ], [ 77.0716727, 11.0149738 ], [ 77.0714033, 11.0149664 ], [ 77.0713768, 11.0153871 ] ] ] } },
{ "type": "Feature", "properties": { "Survey_Number": "S.No 237/1", "Area_Sqm": 826.66, "Village": "Avinashi_Road_Zone" }, "geometry": { "type": "Polygon", "coordinates": [ [ [ 77.0707092, 11.015294 ], [ 77.0710051, 11.0153089 ], [ 77.0710164, 11.0150855 ], [ 77.0707281, 11.0150706 ], [ 77.0707092, 11.015294 ] ] ] } },
{ "type": "Feature", "properties": { "Survey_Number": "S.No 237/2", "Area_Sqm": 825.79, "Village": "Avinashi_Road_Zone" }, "geometry": { "type": "Polygon", "coordinates": [ [ [ 77.0656452, 11.0107068 ], [ 77.0658463, 11.0107664 ], [ 77.0659487, 11.0104834 ], [ 77.0657514, 11.0104052 ], [ 77.0656452, 11.0107068 ] ] ] } },
{ "type": "Feature", "properties": { "Survey_Number": "S.No 237/3", "Area_Sqm": 488.67, "Village": "Avinashi_Road_Zone" }, "geometry": { "type": "Polygon", "coordinates": [ [ [ 77.0689258, 11.0076466 ], [ 77.0690679, 11.0076808 ], [ 77.069135, 11.0074307 ], [ 77.0689848, 11.0073965 ], [ 77.0689258, 11.0076466 ] ] ] } },
{ "type": "Feature", "properties": { "Survey_Number": "S.No 237/4", "Area_Sqm": 2153.5, "Village": "Avinashi_Road_Zone" }, "geometry": { "type": "Polygon", "coordinates": [ [ [ 77.0367818, 11.0472897 ], [ 77.0367709, 11.046943 ], [ 77.0363393, 11.0469547 ], [ 77.0363434, 11.0470271 ], [ 77.0362522, 11.0470258 ], [ 77.0362683, 11.0472482 ], [ 77.0363487, 11.0472509 ], [ 77.0363519, 11.0473106 ], [ 77.0367818, 11.0472897 ] ] ] } },
{ "type": "Feature", "properties": { "Survey_Number": "S.No 237/5", "Area_Sqm": 1252.82, "Village": "Avinashi_Road_Zone" }, "geometry": { "type": "Polygon", "coordinates": [ [ [ 77.0355962, 11.047703 ], [ 77.0358376, 11.0477241 ], [ 77.0358645, 11.0473081 ], [ 77.0356177, 11.0473081 ], [ 77.0355962, 11.047703 ] ] ] } },
{ "type": "Feature", "properties": { "Survey_Number": "S.No 238/1", "Area_Sqm": 1554.77, "Village": "Avinashi_Road_Zone" }, "geometry": { "type": "Polygon", "coordinates": [ [ [ 77.0382976, 11.0462849 ], [ 77.0388721, 11.0463579 ], [ 77.0388924, 11.0461456 ], [ 77.0383078, 11.046076 ], [ 77.0382976, 11.0462849 ] ] ] } },
{ "type": "Feature", "properties": { "Survey_Number": "S.No 238/2", "Area_Sqm": 1454.82, "Village": "Avinashi_Road_Zone" }, "geometry": { "type": "Polygon", "coordinates": [ [ [ 77.02823, 11.0749801 ], [ 77.0281575, 11.0754445 ], [ 77.02848, 11.075493 ], [ 77.0285176, 11.0752517 ], [ 77.028351, 11.0752267 ], [ 77.0283858, 11.0750035 ], [ 77.02823, 11.0749801 ] ] ] } },
{ "type": "Feature", "properties": { "Survey_Number": "S.No 238/3", "Area_Sqm": 561.22, "Village": "Avinashi_Road_Zone" }, "geometry": { "type": "Polygon", "coordinates": [ [ [ 77.0329933, 11.0598379 ], [ 77.0329809, 11.0599406 ], [ 77.0331556, 11.059961 ], [ 77.033148, 11.0600238 ], [ 77.0332363, 11.060034 ], [ 77.0332439, 11.0599713 ], [ 77.0333537, 11.0599841 ], [ 77.0333661, 11.0598814 ], [ 77.0329933, 11.0598379 ] ] ] } },
{ "type": "Feature", "properties": { "Survey_Number": "S.No 238/4", "Area_Sqm": 1482.08, "Village": "Avinashi_Road_Zone" }, "geometry": { "type": "Polygon", "coordinates": [ [ [ 77.0330389, 11.0597734 ], [ 77.0332089, 11.0598084 ], [ 77.03335, 11.0591469 ], [ 77.03318, 11.059112 ], [ 77.0330389, 11.0597734 ] ] ] } },
{ "type": "Feature", "properties": { "Survey_Number": "S.No 238/5", "Area_Sqm": 1433.67, "Village": "Avinashi_Road_Zone" }, "geometry": { "type": "Polygon", "coordinates": [ [ [ 77.0333862, 11.0591733 ], [ 77.0332481, 11.0598208 ], [ 77.0334161, 11.0598553 ], [ 77.0335542, 11.0592078 ], [ 77.0333862, 11.0591733 ] ] ] } },
{ "type": "Feature", "properties": { "Survey_Number": "S.No 239/1", "Area_Sqm": 1708.87, "Village": "Avinashi_Road_Zone" }, "geometry": { "type": "Polygon", "coordinates": [ [ [ 77.0416087, 11.0408083 ], [ 77.0418616, 11.0409265 ], [ 77.0420663, 11.0404597 ], [ 77.0418375, 11.0403533 ], [ 77.0416087, 11.0408083 ] ] ] } },
{ "type": "Feature", "properties": { "Survey_Number": "S.No 239/2", "Area_Sqm": 279.12, "Village": "Avinashi_Road_Zone" }, "geometry": { "type": "Polygon", "coordinates": [ [ [ 77.0378058, 11.0418878 ], [ 77.0378055, 11.0419924 ], [ 77.0380167, 11.0419931 ], [ 77.0380171, 11.0418884 ], [ 77.0378058, 11.0418878 ] ] ] } },
{ "type": "Feature", "properties": { "Survey_Number": "S.No 239/3", "Area_Sqm": 166.54, "Village": "Avinashi_Road_Zone" }, "geometry": { "type": "Polygon", "coordinates": [ [ [ 77.0638642, 11.0546323 ], [ 77.0638413, 11.0547123 ], [ 77.0639942, 11.0547544 ], [ 77.0640171, 11.0546745 ], [ 77.0638642, 11.0546323 ] ] ] } },
{ "type": "Feature", "properties": { "Survey_Number": "S.No 239/4", "Area_Sqm": 70.6, "Village": "Avinashi_Road_Zone" }, "geometry": { "type": "Polygon", "coordinates": [ [ [ 77.037605, 11.0335076 ], [ 77.0375987, 11.0335671 ], [ 77.0377023, 11.0335776 ], [ 77.0377072, 11.0335317 ], [ 77.0376606, 11.0335269 ], [ 77.037662, 11.0335134 ], [ 77.037605, 11.0335076 ] ] ] } },
{ "type": "Feature", "properties": { "Survey_Number": "S.No 239/5", "Area_Sqm": 310.98, "Village": "Avinashi_Road_Zone" }, "geometry": { "type": "Polygon", "coordinates": [ [ [ 77.0405759, 11.0027871 ], [ 77.0406805, 11.002799 ], [ 77.0407078, 11.0025666 ], [ 77.0406032, 11.0025547 ], [ 77.0405759, 11.0027871 ] ] ] } }
]
}
